{
  "type": "FeatureCollection",
  "name": "kara-kulja-context-labels",
  "features": [
    {
      "type": "Feature",
      "geometry": { "type": "Point", "coordinates": [72.820473, 40.497949] },
      "properties": {
        "@id": "manual-context/osh",
        "contextType": "place",
        "name": "Ош",
        "name:ky": "Ош",
        "name:ru": "Ош",
        "name:en": "Osh",
        "sourceGeometry": "Point",
        "source": "manual verified context coordinate"
      }
    },
    {
      "type": "Feature",
      "geometry": { "type": "Point", "coordinates": [73.28348, 40.770341] },
      "properties": {
        "@id": "manual-context/uzgen",
        "contextType": "place",
        "name": "Өзгөн",
        "name:ky": "Өзгөн",
        "name:ru": "Узген",
        "name:en": "Uzgen",
        "sourceGeometry": "Point",
        "source": "manual verified context coordinate"
      }
    },
    {
      "type": "Feature",
      "geometry": { "type": "Point", "coordinates": [73.443589, 40.315311] },
      "properties": {
        "@id": "manual-context/gulcho",
        "contextType": "place",
        "name": "Гүлчө",
        "name:ky": "Гүлчө",
        "name:ru": "Гульча",
        "name:en": "Gulcho",
        "sourceGeometry": "Point",
        "source": "manual verified context coordinate"
      }
    },
    {
      "type": "Feature",
      "geometry": { "type": "Point", "coordinates": [73.4137301, 40.753218] },
      "properties": {
        "@id": "node/297083207",
        "contextType": "place",
        "name": "Мырза-Аке",
        "name:ky": "Мырза-Аке",
        "name:ru": "Мырза-Аке",
        "name:en": "Myrza-Ake",
        "sourceGeometry": "Point",
        "source": "filtered from kyrgyzstan-context-raw.geojson"
      }
    },
    {
      "type": "Feature",
      "geometry": { "type": "Point", "coordinates": [72.868465, 40.705822] },
      "properties": {
        "@id": "manual-context/kara-suu",
        "contextType": "place",
        "name": "Кара-Суу",
        "name:ky": "Кара-Суу",
        "name:ru": "Кара-Суу",
        "name:en": "Kara-Suu",
        "sourceGeometry": "Point",
        "source": "manual verified context coordinate"
      }
    },
    {
      "type": "Feature",
      "geometry": { "type": "Point", "coordinates": [72.617294, 40.274026] },
      "properties": {
        "@id": "manual-context/nookat",
        "contextType": "place",
        "name": "Ноокат",
        "name:ky": "Ноокат",
        "name:ru": "Ноокат",
        "name:en": "Nookat",
        "sourceGeometry": "Point",
        "source": "manual verified context coordinate"
      }
    },
    {
      "type": "Feature",
      "geometry": { "type": "Point", "coordinates": [73.186584, 40.687667] },
      "properties": {
        "@id": "manual-context/kurshab",
        "contextType": "place",
        "name": "Куршаб",
        "name:ky": "Куршаб",
        "name:ru": "Куршаб",
        "name:en": "Kurshab",
        "sourceGeometry": "Point",
        "source": "manual verified context coordinate"
      }
    },
    {
      "type": "Feature",
      "geometry": { "type": "Point", "coordinates": [72.903063, 40.902242] },
      "properties": {
        "@id": "manual-context/suzak",
        "contextType": "place",
        "name": "Сузак",
        "name:ky": "Сузак",
        "name:ru": "Сузак",
        "name:en": "Suzak",
        "sourceGeometry": "Point",
        "source": "manual verified context coordinate"
      }
    },
    {
      "type": "Feature",
      "geometry": { "type": "Point", "coordinates": [74.13378445000001, 40.434856350000004] },
      "properties": {
        "@id": "relation/15570761",
        "contextType": "district",
        "name": "Кара-Кулжа району",
        "name:ky": "Кара-Кулжа району",
        "name:ru": "Кара-Кульджинский район",
        "name:en": "Kara-Kulja District",
        "sourceGeometry": "Polygon",
        "source": "filtered from kyrgyzstan-context-raw.geojson"
      }
    },
    {
      "type": "Feature",
      "geometry": { "type": "Point", "coordinates": [73.68248550000001, 40.80559275] },
      "properties": {
        "@id": "relation/15570597",
        "contextType": "district",
        "name": "Өзгөн району",
        "name:ky": "Өзгөн району",
        "name:ru": "Узгенский район",
        "name:en": "Uzgen District",
        "sourceGeometry": "Polygon",
        "source": "filtered from kyrgyzstan-context-raw.geojson"
      }
    },
    {
      "type": "Feature",
      "geometry": { "type": "Point", "coordinates": [73.41442035, 39.9268307] },
      "properties": {
        "@id": "relation/15570762",
        "contextType": "district",
        "name": "Алай району",
        "name:ky": "Алай району",
        "name:ru": "Алайский район",
        "name:en": "Alay District",
        "sourceGeometry": "Polygon",
        "source": "filtered from kyrgyzstan-context-raw.geojson"
      }
    },
    {
      "type": "Feature",
      "geometry": { "type": "Point", "coordinates": [73.0222093, 40.2899928] },
      "properties": {
        "@id": "relation/15570558",
        "contextType": "district",
        "name": "Кара-Суу району",
        "name:ky": "Кара-Суу району",
        "name:ru": "Кара-Сууский район",
        "name:en": "Kara-Suu District",
        "sourceGeometry": "MultiPolygon",
        "source": "filtered from kyrgyzstan-context-raw.geojson"
      }
    },
    {
      "type": "Feature",
      "geometry": { "type": "Point", "coordinates": [72.56349835, 40.102181400000006] },
      "properties": {
        "@id": "relation/15570396",
        "contextType": "district",
        "name": "Ноокат району",
        "name:ky": "Ноокат району",
        "name:ru": "Ноокатский район",
        "name:en": "Nookat District",
        "sourceGeometry": "Polygon",
        "source": "filtered from kyrgyzstan-context-raw.geojson"
      }
    },
    {
      "type": "Feature",
      "geometry": { "type": "Point", "coordinates": [72.21103225, 39.49364464999999] },
      "properties": {
        "@id": "relation/7491199",
        "contextType": "district",
        "name": "Чоң-Алай району",
        "name:ky": "Чоң-Алай району",
        "name:ru": "Чон-Алайский район",
        "name:en": "Chong-Alay District",
        "sourceGeometry": "Polygon",
        "source": "filtered from kyrgyzstan-context-raw.geojson"
      }
    },
    {
      "type": "Feature",
      "geometry": { "type": "Point", "coordinates": [73.1931447, 40.1082848] },
      "properties": {
        "@id": "node/13392590011",
        "contextType": "region",
        "name": "Ош облусу",
        "name:ky": "Ош облусу",
        "name:ru": "Ошская область",
        "name:en": "Osh Region",
        "sourceGeometry": "Point",
        "source": "filtered from kyrgyzstan-context-raw.geojson"
      }
    },
    {
      "type": "Feature",
      "geometry": { "type": "Point", "coordinates": [74.884111, 40.745308] },
      "properties": {
        "@id": "manual-context/at-bashy-district",
        "contextType": "district",
        "name": "Ат-Башы району, Нарын облусу",
        "name:ky": "Ат-Башы району, Нарын облусу",
        "name:ru": "Ат-Башинский район, Нарынская область",
        "name:en": "At-Bashy District, Naryn Region",
        "sourceGeometry": "Point",
        "source": "manual verified context coordinate"
      }
    },
    {
      "type": "Feature",
      "geometry": { "type": "Point", "coordinates": [72.4649525, 41.4804383] },
      "properties": {
        "@id": "node/13392590014",
        "contextType": "region",
        "name": "Жалал-Абад облусу",
        "name:ky": "Жалал-Абад облусу",
        "name:ru": "Джалал-Абадская область",
        "name:en": "Jalal-Abad Region",
        "sourceGeometry": "Point",
        "source": "filtered from kyrgyzstan-context-raw.geojson"
      }
    },
    {
      "type": "Feature",
      "geometry": { "type": "Point", "coordinates": [74.724091, 41.5089324] },
      "properties": {
        "@id": "node/1700777271",
        "contextType": "country",
        "name": "Кыргызстан",
        "name:ky": "Кыргызстан",
        "name:ru": "Киргизия",
        "name:en": "Kyrgyzstan",
        "sourceGeometry": "Point",
        "source": "filtered from kyrgyzstan-context-raw.geojson"
      }
    },
    {
      "type": "Feature",
      "geometry": { "type": "Point", "coordinates": [74.211376, 40.094127] },
      "properties": {
        "@id": "relation/270056",
        "contextType": "country",
        "name": "Кытай",
        "name:ky": "Кытай",
        "name:ru": "Китай",
        "name:en": "China",
        "sourceGeometry": "MultiPolygon",
        "source": "filtered from kyrgyzstan-context-raw.geojson"
      }
    }
  ]
}
