{"type":"FeatureCollection","name":"kara-kulja-pois-religion","features":[{"type":"Feature","geometry":{"type":"Polygon","coordinates":[[[73.4278239,40.6341174],[73.4278264,40.6339899],[73.428087,40.6339928],[73.4280859,40.6340507],[73.4281944,40.6340519],[73.4281931,40.6341215],[73.4278239,40.6341174]]]},"properties":{"@id":"way/419613389","amenity":"place_of_worship","building":"yes","denomination":"sunni","religion":"muslim"}},{"type":"Feature","geometry":{"type":"Polygon","coordinates":[[[73.3908242,40.674139],[73.3908549,40.6740513],[73.3910532,40.6740911],[73.3910226,40.6741789],[73.3908242,40.674139]]]},"properties":{"@id":"way/419615223","amenity":"place_of_worship","building":"mosque","denomination":"sunni","religion":"muslim"}},{"type":"Feature","geometry":{"type":"Polygon","coordinates":[[[73.6141142,40.5914864],[73.6141021,40.5913662],[73.6143113,40.591354],[73.6143234,40.5914742],[73.6141142,40.5914864]]]},"properties":{"@id":"way/441873011","amenity":"place_of_worship","building":"yes","religion":"muslim"}},{"type":"Feature","geometry":{"type":"Polygon","coordinates":[[[73.5972217,40.5910709],[73.597205,40.5909381],[73.5974303,40.5909218],[73.597447,40.5910546],[73.5972217,40.5910709]]]},"properties":{"@id":"way/441873012","amenity":"place_of_worship","building":"yes","religion":"muslim"}},{"type":"Feature","geometry":{"type":"Polygon","coordinates":[[[74.004727,40.5467519],[74.0047749,40.5466547],[74.0049251,40.5466975],[74.0048772,40.5467947],[74.004727,40.5467519]]]},"properties":{"@id":"way/443463377","amenity":"place_of_worship","building":"yes","religion":"muslim"}},{"type":"Feature","geometry":{"type":"Polygon","coordinates":[[[73.7399447,40.5550384],[73.7400656,40.5548665],[73.7403418,40.5549786],[73.740221,40.5551505],[73.7399447,40.5550384]]]},"properties":{"@id":"way/443463378","amenity":"place_of_worship","building":"yes","religion":"muslim"}},{"type":"Feature","geometry":{"type":"Polygon","coordinates":[[[73.5842344,40.6305202],[73.5842066,40.6303428],[73.5844775,40.6303183],[73.5845053,40.6304957],[73.5842344,40.6305202]]]},"properties":{"@id":"way/626556942","amenity":"place_of_worship","building":"yes","religion":"muslim"}},{"type":"Feature","geometry":{"type":"Polygon","coordinates":[[[73.4933317,40.5773272],[73.4933022,40.5773252],[73.4933129,40.5772193],[73.4934658,40.5772254],[73.4934631,40.5773293],[73.4933317,40.5773272]]]},"properties":{"@id":"way/692694306","amenity":"place_of_worship","building":"mosque","building:levels":"1","denomination":"sunni","man_made":"tower","religion":"muslim","tower:type":"minaret","wheelchair":"limited"}},{"type":"Feature","geometry":{"type":"Point","coordinates":[73.452883,40.6301764]},"properties":{"@id":"node/5747539504","addr:city":"Жаны-Талаа","addr:street":"Маматали Матиев улица","amenity":"place_of_worship","name":"Мечеть  \"Жамшит ата\"","religion":"muslim"}},{"type":"Feature","geometry":{"type":"Point","coordinates":[74.105872,40.424428]},"properties":{"@id":"manual/oy-tal/zhumali-ata-mosque","name":"Жумали-Ата мечити","source":"Oi-Tal local material","amenity":"place_of_worship","religion":"muslim","villageSlug":"oy-tal","territorySlug":"oy-tal"}},{"type":"Feature","geometry":{"type":"Point","coordinates":[74.096139,40.4272]},"properties":{"@id":"manual/oy-tal/second-mosque","name":"2-мечит","source":"Oi-Tal local material","amenity":"place_of_worship","religion":"muslim","villageSlug":"oy-tal","territorySlug":"oy-tal"}},{"type":"Feature","geometry":{"type":"Point","coordinates":[74.115,40.460081]},"properties":{"@id":"manual/konduk/amanbay-ata-mosque","name":"\"Аманбай ата\" мечити","source":"Oi-Tal local material","amenity":"place_of_worship","religion":"muslim","villageSlug":"konduk","territorySlug":"oy-tal"}},{"type":"Feature","geometry":{"type":"Point","coordinates":[73.890021,40.554857]},"properties":{"@id":"manual/sary-bee/ysakov-shamshidin-azhy-mosque","name":"Ысаков Шамшидин ажы атындагы мечит","source":"Oi-Tal local material","amenity":"place_of_worship","religion":"muslim","villageSlug":"sary-bee","territorySlug":"oy-tal"}},{"type":"Feature","geometry":{"type":"Point","coordinates":[73.8264614,40.5323271]},"properties":{"@id":"manual/terek-suu/mosque","name":"Терек-Суу мечити","source":"Oi-Tal local material","amenity":"place_of_worship","religion":"muslim","villageSlug":"terek-suu","territorySlug":"oy-tal"}},{"type":"Feature","geometry":{"type":"Point","coordinates":[73.4946278,40.6661694]},"properties":{"@id":"manual/kara-kochkor/mosque","name":"Мечит","name:ky":"Мечит","name:ru":"Мечеть","name:en":"Mosque","source":"Kara-Kochkor local administration","amenity":"place_of_worship","religion":"muslim","villageSlug":"kara-kochkor","territorySlug":"kara-kochkor"}},{"type":"Feature","geometry":{"type":"Point","coordinates":[73.6183944,40.6693333]},"properties":{"@id":"manual/ak-kyya/mosque","name":"Мечит","name:ky":"Мечит","name:ru":"Мечеть","name:en":"Mosque","source":"Kara-Kochkor local administration","amenity":"place_of_worship","religion":"muslim","villageSlug":"ak-kyya","territorySlug":"kara-kochkor"}},{"type":"Feature","geometry":{"type":"Point","coordinates":[73.5359111,40.6532972]},"properties":{"@id":"manual/sary-bulak-kara-kochkor/mosque","name":"Мечит","name:ky":"Мечит","name:ru":"Мечеть","name:en":"Mosque","source":"Kara-Kochkor local administration","amenity":"place_of_worship","religion":"muslim","villageSlug":"sary-bulak-kara-kochkor","territorySlug":"kara-kochkor"}},{"type":"Feature","geometry":{"type":"Point","coordinates":[73.4093556,40.6861861]},"properties":{"@id":"manual/zhany-talap/mosque","name":"Мечит","name:ky":"Мечит","name:ru":"Мечеть","name:en":"Mosque","source":"Kara-Kochkor local administration","amenity":"place_of_worship","religion":"muslim","villageSlug":"zhany-talap","territorySlug":"kara-kochkor"}},{"type":"Feature","geometry":{"type":"Point","coordinates":[73.3908639,40.674125]},"properties":{"@id":"manual/zhiyde/mosque","name":"Мечит","name:ky":"Мечит","name:ru":"Мечеть","name:en":"Mosque","source":"Kara-Kochkor local administration","amenity":"place_of_worship","religion":"muslim","villageSlug":"zhiyde","territorySlug":"kara-kochkor"}},{"type":"Feature","geometry":{"type":"Point","coordinates":[73.4411056,40.6831667]},"properties":{"@id":"manual/oktyabr/mosque","name":"Мечит","name:ky":"Мечит","name:ru":"Мечеть","name:en":"Mosque","source":"Kara-Kochkor local administration","amenity":"place_of_worship","religion":"muslim","villageSlug":"oktyabr","territorySlug":"kara-kochkor"}},{"type":"Feature","geometry":{"type":"Point","coordinates":[73.427125,40.6679222]},"properties":{"@id":"manual/togotoy/mosque","name":"Мечит","name:ky":"Мечит","name:ru":"Мечеть","name:en":"Mosque","source":"Kara-Kochkor local administration","amenity":"place_of_worship","religion":"muslim","villageSlug":"togotoy","territorySlug":"kara-kochkor"}},{"type":"Feature","geometry":{"type":"Point","coordinates":[73.4147111,40.7106222]},"properties":{"@id":"manual/yntymak/mosque","name":"Мечит","name:ky":"Мечит","name:ru":"Мечеть","name:en":"Mosque","source":"Kara-Kochkor local administration","amenity":"place_of_worship","religion":"muslim","villageSlug":"yntymak","territorySlug":"kara-kochkor"}}]}
