{"type":"FeatureCollection","name":"kara-kulja-pois-amenity","features":[{"type":"Feature","geometry":{"type":"Polygon","coordinates":[[[73.4279917,40.6314806],[73.4280416,40.6314231],[73.4280839,40.6314442],[73.4280339,40.6315017],[73.4279917,40.6314806]]]},"properties":{"@id":"way/419613030","amenity":"toilets"}},{"type":"Feature","geometry":{"type":"Polygon","coordinates":[[[73.4287781,40.631725],[73.4288317,40.6315947],[73.4289605,40.6316313],[73.4289122,40.6317575],[73.4287781,40.631725]]]},"properties":{"@id":"way/419613034","amenity":"cafe","building":"yes","name":"буфет"}},{"type":"Feature","geometry":{"type":"Polygon","coordinates":[[[73.4277587,40.6339189],[73.4276662,40.6338971],[73.4277359,40.6337274],[73.4276833,40.633715],[73.427698,40.6336791],[73.427843,40.6337134],[73.4277587,40.6339189]]]},"properties":{"@id":"way/419613401","amenity":"cafe","building":"yes"}},{"type":"Feature","geometry":{"type":"Polygon","coordinates":[[[73.3920808,40.6719879],[73.3921299,40.6719179],[73.3922179,40.6719533],[73.3921688,40.6720234],[73.3920808,40.6719879]]]},"properties":{"@id":"way/419615206","amenity":"toilets","unisex":"yes"}},{"type":"Feature","geometry":{"type":"Polygon","coordinates":[[[73.3906853,40.6724855],[73.3907548,40.6723708],[73.3909721,40.6724466],[73.3909026,40.6725612],[73.3906853,40.6724855]]]},"properties":{"@id":"way/419615218","amenity":"arts_centre","name":"актовый зал"}},{"type":"Feature","geometry":{"type":"Polygon","coordinates":[[[74.385075,40.2669155],[74.3855336,40.2668316],[74.3860808,40.2667415],[74.3864053,40.2666883],[74.3873146,40.2668991],[74.3873307,40.2670526],[74.3874273,40.2672204],[74.3875051,40.2673923],[74.3878591,40.2673739],[74.3878591,40.2673985],[74.3878055,40.2675356],[74.3876472,40.2677587],[74.3860272,40.2678897],[74.3859199,40.2678897],[74.3857187,40.2678671],[74.3850589,40.2673923],[74.3849865,40.2672368],[74.385075,40.2669155]]]},"properties":{"@id":"way/539552328","amenity":"grave_yard"}},{"type":"Feature","geometry":{"type":"Polygon","coordinates":[[[73.5846455,40.6318245],[73.5840683,40.6307603],[73.5856479,40.6301481],[73.5856931,40.630208],[73.58617,40.6300395],[73.5868285,40.6310982],[73.5846455,40.6318245]]]},"properties":{"@id":"way/1362353291","amenity":"marketplace","name":"Центральный рынок","name:en":"Kara-Kulja Central Bazaar"}},{"type":"Feature","geometry":{"type":"Point","coordinates":[73.5894775,40.6344636]},"properties":{"@id":"node/5386502325","amenity":"bank","name":"РСК"}},{"type":"Feature","geometry":{"type":"Point","coordinates":[73.5896635,40.6345109]},"properties":{"@id":"node/5386502326","amenity":"atm","operator":"РСК"}},{"type":"Feature","geometry":{"type":"Point","coordinates":[73.5859672,40.635879]},"properties":{"@id":"node/5424180821","amenity":"car_wash","name":"Школа"}},{"type":"Feature","geometry":{"type":"Point","coordinates":[73.5943563,40.6354863]},"properties":{"@id":"node/6399870585","amenity":"police","name":"ОВД Кара-Кулжинского района"}},{"type":"Feature","geometry":{"type":"Point","coordinates":[73.616988,40.5878863]},"properties":{"@id":"node/10046693840","amenity":"drinking_water"}},{"type":"Feature","geometry":{"type":"Point","coordinates":[73.5847681,40.6319003]},"properties":{"@id":"node/11676128188","amenity":"bank","contact:email":"bank@bakai.kg","contact:facebook":"https://www.facebook.com/BakaiBank","contact:instagram":"https://www.instagram.com/bakaibank.kg","contact:phone":"+996 312 610 061;+996 554 006 111;6111","contact:website":"https://www.bakai.kg","name":"Бакай банк","name:en":"Bakai Bank","name:ru":"Бакай банк","opening_hours":"Mo-Fr 08:30-12:00,13:00-16:00; Sa 08:30-13:00"}},{"type":"Feature","geometry":{"type":"Point","coordinates":[73.586018,40.6316234]},"properties":{"@id":"node/11676132449","amenity":"atm","contact:facebook":"https://www.facebook.com/BakaiBank","contact:instagram":"https://www.instagram.com/bakaibank.kg","contact:phone":"+996 312 610 061;+996 554 006 111;6111","contact:website":"https://www.bakai.kg","opening_hours":"24/7"}},{"type":"Feature","geometry":{"type":"Point","coordinates":[73.5875845,40.6376769]},"properties":{"@id":"node/12231783170","amenity":"bank","contact:phone":"+996 3239 50495","contact:website":"https://eib.kg","name":"ЭкоИсламикБанк","opening_hours":"Fr 08:30-13:00,14:30-17:00; Mo-Th 08:30-12:00,13:00-16:30; Sa 08:30-13:00"}},{"type":"Feature","geometry":{"type":"Point","coordinates":[73.5764668,40.632456]},"properties":{"@id":"node/12311756803","amenity":"bank","contact:phone":"+996 312 338 800;+996 3239 50608;+996 770 338 800","contact:website":"https://www.kompanion.kg","name":"Банк Компаньон","opening_hours":"Mo-Fr 08:30-17:30; Sa 09:00-13:00"}},{"type":"Feature","geometry":{"type":"Point","coordinates":[73.7992634,40.5190533]},"properties":{"@id":"manual/terek-suu/megacom-object","name":"MegaCom объекти","source":"Oi-Tal local material","service":"telecommunications","operator":"MegaCom","villageSlug":"terek-suu","territorySlug":"oy-tal"}},{"type":"Feature","geometry":{"type":"Point","coordinates":[73.796609,40.5219688]},"properties":{"@id":"manual/terek-suu/o-object","name":"O! объекти","source":"Oi-Tal local material","service":"telecommunications","operator":"O!","villageSlug":"terek-suu","territorySlug":"oy-tal"}},{"type":"Feature","geometry":{"type":"Point","coordinates":[73.8220531,40.5316401]},"properties":{"@id":"manual/terek-suu/islam-ata-stop","name":"\"Ислам ата\" аялдамасы","source":"Oi-Tal local material","highway":"bus_stop","service":"transport","villageSlug":"terek-suu","territorySlug":"oy-tal"}},{"type":"Feature","geometry":{"type":"Point","coordinates":[73.826568,40.5318608]},"properties":{"@id":"manual/terek-suu/second-stop","name":"Дагы бир аялдама","source":"Oi-Tal local material","highway":"bus_stop","service":"transport","villageSlug":"terek-suu","territorySlug":"oy-tal"}}]}
