{"type":"FeatureCollection","name":"kara-kulja-pois-tourism","features":[{"type":"Feature","geometry":{"type":"Point","coordinates":[73.743007,40.55048]},"properties":{"@id":"node/4210457693","tourism":"picnic_site"}},{"type":"Feature","geometry":{"type":"Point","coordinates":[74.1189962,40.4609613]},"properties":{"@id":"node/11033614005","name":"Tariel Homestay","phone":"+996706154140","tourism":"guest_house"}},{"type":"Feature","geometry":{"type":"Point","coordinates":[74.0763253,40.4614793]},"properties":{"@id":"node/11451042629","name":"Konduk Lager","tourism":"guest_house"}},{"type":"Feature","geometry":{"type":"Point","coordinates":[74.2721862,40.3084152]},"properties":{"@id":"node/11457163238","name":"Alaiku Camp Guesthouse","tourism":"guest_house"}},{"type":"Feature","geometry":{"type":"Point","coordinates":[74.1081987,40.4602138]},"properties":{"@id":"node/12607638260","name":"Guesthouse Elmyrza","tourism":"guest_house"}},{"type":"Feature","geometry":{"type":"Point","coordinates":[74.3452257,40.5458207]},"properties":{"@id":"node/12607727313","backcountry":"yes","tourism":"camp_site"}},{"type":"Feature","geometry":{"type":"Point","coordinates":[73.5901495,40.6329182]},"properties":{"@id":"node/12608511760","name":"Гостиница \"Алайку\"","name:en":"Alayku Hotel","tourism":"hotel"}},{"type":"Feature","geometry":{"type":"Point","coordinates":[73.5886903,40.6360584]},"properties":{"@id":"node/12608511761","name":"\"Бек-Бол-Шам\" мейманканасы","name:en":"Bek-Bol-Sham Hotel","tourism":"hotel"}}]}