{"type":"FeatureCollection","name":"kara-kulja-pois-administration","features":[{"type":"Feature","geometry":{"type":"Point","coordinates":[73.5240056,40.6574944]},"properties":{"@id":"manual/kara-kochkor/aiyl-okmotu","name":"Айыл өкмөтүнүн имараты","name:ky":"Айыл өкмөтүнүн имараты","name:ru":"Здание айыл окмоту","name:en":"Aiyl okmotu building","source":"Kara-Kochkor local administration","office":"government","villageSlug":"kara-kochkor","territorySlug":"kara-kochkor"}},{"type":"Feature","geometry":{"type":"Point","coordinates":[73.463649,40.627335]},"properties":{"@id":"manual/zhany-talaa/local-government","name":"Кара-Гуз жергиликтүү администрациясынын имараты","name:ky":"Кара-Гуз жергиликтүү администрациясынын имараты","name:ru":"Здание местной администрации Кара-Гуз","name:en":"Kara-Guz local government building","source":"Kara-Guz local administration","office":"government","villageSlug":"zhany-talaa","territorySlug":"kara-guz"}}]}
