{"type":"FeatureCollection","name":"kara-kulja-pois-shop","features":[{"type":"Feature","geometry":{"type":"Polygon","coordinates":[[[73.4242108,40.6351191],[73.424141,40.6350489],[73.4242228,40.6350021],[73.4242926,40.6350724],[73.4242108,40.6351191]]]},"properties":{"@id":"way/419613404","building":"yes","shop":"convenience"}},{"type":"Feature","geometry":{"type":"Polygon","coordinates":[[[73.4328876,40.6352298],[73.4328485,40.6351642],[73.4329579,40.6351266],[73.432997,40.6351922],[73.4328876,40.6352298]]]},"properties":{"@id":"way/419613407","building":"retail","name":"Магазин","shop":"convenience"}},{"type":"Feature","geometry":{"type":"Polygon","coordinates":[[[73.4276028,40.6340264],[73.4276014,40.6339358],[73.4277181,40.6339348],[73.4277194,40.6340254],[73.4276028,40.6340264]]]},"properties":{"@id":"way/419613410","building":"retail","name":"Магазин","shop":"supermarket"}},{"type":"Feature","geometry":{"type":"Polygon","coordinates":[[[73.49511,40.5778467],[73.4951046,40.5777815],[73.4952146,40.5777775],[73.4952199,40.5778467],[73.49511,40.5778467]]]},"properties":{"@id":"way/692694300","building":"yes","shop":"convenience"}},{"type":"Feature","geometry":{"type":"Point","coordinates":[73.5853414,40.6290233]},"properties":{"@id":"node/9870114273","shop":"supermarket"}},{"type":"Feature","geometry":{"type":"Point","coordinates":[73.5857821,40.5919803]},"properties":{"@id":"node/9870114505","shop":"convenience"}},{"type":"Feature","geometry":{"type":"Point","coordinates":[73.630587,40.4805506]},"properties":{"@id":"node/10044690060","shop":"supermarket"}},{"type":"Feature","geometry":{"type":"Point","coordinates":[73.5865011,40.631314]},"properties":{"@id":"node/10302538899","contact:email":"pr@nurtelecom.kg","contact:facebook":"https://facebook.com/okgmobile","contact:instagram":"https://instagram.com/o_mobile_operator/","contact:ok":"https://ok.ru/okgmobile","contact:phone":"+996 705 700 700","contact:twitter":"https://twitter.com/NurTelecom","contact:website":"https://o.kg/ru/chastnym-klientam/","name":"O!Store","office":"telecommunication","opening_hours":"Mo-Fr 09:00-18:00; Sa-Su 09:00-13:00,14:00-18:00","shop":"mobile_phone"}},{"type":"Feature","geometry":{"type":"Point","coordinates":[74.1116523,40.4605497]},"properties":{"@id":"node/12607638261","name":"Дүкөн \"Белек\"","shop":"convenience"}},{"type":"Feature","geometry":{"type":"Point","coordinates":[74.1132744,40.4607766]},"properties":{"@id":"node/12607638262","name":"Дүкөн \"Роза\"","shop":"convenience"}},{"type":"Feature","geometry":{"type":"Point","coordinates":[73.8281458,40.5327967]},"properties":{"@id":"manual/terek-suu/bayel-shop","name":"\"Байэл\" дүкөнү","source":"Oi-Tal local material","shop":"convenience","villageSlug":"terek-suu","territorySlug":"oy-tal"}},{"type":"Feature","geometry":{"type":"Point","coordinates":[73.8263034,40.5308606]},"properties":{"@id":"manual/terek-suu/grocery-shop","name":"Азык-түлүк дүкөнү","source":"Oi-Tal local material","shop":"convenience","villageSlug":"terek-suu","territorySlug":"oy-tal"}}]}
