{"type":"FeatureCollection","name":"kara-kulja-pois-education","features":[{"type":"Feature","geometry":{"type":"Polygon","coordinates":[[[73.4282121,40.6335833],[73.4281924,40.6334311],[73.428319,40.6334217],[73.4283388,40.6335738],[73.4282121,40.6335833]]]},"properties":{"@id":"way/419613036","amenity":"kindergarten","name":"детиский сат"}},{"type":"Feature","geometry":{"type":"Polygon","coordinates":[[[73.3919502,40.6722636],[73.3917087,40.6727916],[73.3915351,40.6727459],[73.3917206,40.6723402],[73.3917877,40.6723579],[73.3918437,40.6722356],[73.3919502,40.6722636]]]},"properties":{"@id":"way/419615209","amenity":"school","building":"yes","name":"Спортивная школа Жийде"}},{"type":"Feature","geometry":{"type":"Polygon","coordinates":[[[73.5936436,40.6303502],[73.5939735,40.6309263],[73.594915,40.6306759],[73.5954782,40.6319339],[73.5936973,40.6323899],[73.5933593,40.6318443],[73.592957,40.6305823],[73.5936436,40.6303502]]]},"properties":{"@id":"way/441772459","amenity":"school"}},{"type":"Feature","geometry":{"type":"Polygon","coordinates":[[[73.612462,40.5926963],[73.612183,40.5914274],[73.6138648,40.5912461],[73.6140955,40.5923969],[73.612462,40.5926963]]]},"properties":{"@id":"way/441873013","amenity":"school"}},{"type":"Feature","geometry":{"type":"Polygon","coordinates":[[[73.5972673,40.5911789],[73.5976911,40.5911585],[73.5976106,40.5906738],[73.5990429,40.5905067],[73.5992092,40.591847],[73.5974389,40.5920628],[73.5972673,40.5911789]]]},"properties":{"@id":"way/441873014","amenity":"school"}},{"type":"Feature","geometry":{"type":"Polygon","coordinates":[[[73.5875259,40.6321854],[73.5868607,40.6324276],[73.5872282,40.6332011],[73.5865818,40.6334087],[73.5857422,40.6319044],[73.5871075,40.6314749],[73.5875259,40.6321854]]]},"properties":{"@id":"way/442204482","amenity":"school","name":"Школа имени Эшмамбетова"}},{"type":"Feature","geometry":{"type":"Polygon","coordinates":[[[73.428608,40.6647817],[73.4297158,40.6637095],[73.4309549,40.6644032],[73.4297667,40.6655548],[73.428608,40.6647817]]]},"properties":{"@id":"way/442451108","amenity":"school"}},{"type":"Feature","geometry":{"type":"Polygon","coordinates":[[[73.6849752,40.6303553],[73.6853454,40.629252],[73.6864987,40.6294312],[73.6861661,40.630563],[73.6849752,40.6303553]]]},"properties":{"@id":"way/442451109","amenity":"school"}},{"type":"Feature","geometry":{"type":"Polygon","coordinates":[[[73.4094704,40.6867491],[73.4098057,40.6856956],[73.4112702,40.6860434],[73.4112943,40.6863159],[73.4110824,40.6870969],[73.4094704,40.6867491]]]},"properties":{"@id":"way/442451110","amenity":"school"}},{"type":"Feature","geometry":{"type":"Polygon","coordinates":[[[73.4685427,40.6267685],[73.4697014,40.6266097],[73.4699375,40.6273018],[73.4700662,40.628],[73.46876,40.628224],[73.4685427,40.6267685]]]},"properties":{"@id":"way/443361966","amenity":"school"}},{"type":"Feature","geometry":{"type":"Polygon","coordinates":[[[73.7378365,40.560569],[73.7379653,40.560461],[73.7386626,40.5603755],[73.7390676,40.5600739],[73.7400252,40.5605201],[73.7392018,40.5612028],[73.7381852,40.5610275],[73.7378365,40.560569]]]},"properties":{"@id":"way/443463379","amenity":"school"}},{"type":"Feature","geometry":{"type":"Polygon","coordinates":[[[73.6174585,40.4246363],[73.6173792,40.4245572],[73.6176917,40.4243757],[73.6178003,40.4244841],[73.6174877,40.4246656],[73.6174585,40.4246363]]]},"properties":{"@id":"way/489723675","addr:country":"KG","addr:region":"Тегерек-Саз","amenity":"school","building":"school","building:levels":"1"}},{"type":"Feature","geometry":{"type":"Polygon","coordinates":[[[73.4942758,40.5781034],[73.4942168,40.5777225],[73.4943563,40.5777163],[73.4943911,40.5778895],[73.4944341,40.5778895],[73.4944341,40.5779303],[73.4943965,40.5779303],[73.4944367,40.5780973],[73.4942758,40.5781034]]]},"properties":{"@id":"way/692694309","amenity":"kindergarten","building":"school","building:levels":"1","opening_hours":"08:30-12:30,15:30-20:00","wheelchair":"yes"}},{"type":"Feature","geometry":{"type":"Polygon","coordinates":[[[73.4945226,40.5784131],[73.4944056,40.5784151],[73.4942919,40.5784171],[73.4942832,40.5783263],[73.4942651,40.578136],[73.4945065,40.5781197],[73.4945065,40.5782175],[73.4944153,40.5782175],[73.4944099,40.5783194],[73.4945333,40.5783031],[73.4945226,40.5784131]]]},"properties":{"@id":"way/692694311","amenity":"kindergarten","building":"kindergarten","building:levels":"1","opening_hours":"08:30-12:30,15:30-20:00","wheelchair":"yes"}},{"type":"Feature","geometry":{"type":"Point","coordinates":[73.5997797,40.656964]},"properties":{"@id":"node/3446421778","addr:city":"Сары-Булак, Ажыке","amenity":"kindergarten","name":"Садики на Жайлоо Ажыке","name:en":"Jailoo Kindergartens, Ajyke","operator":"Международный общественный фонд (МОФ) “Инициатива Розы Отунбаевой”","phone":"+996 312 660 382","source":"Международный общественный фонд (МОФ) “Инициатива Розы Отунбаевой”","website":"https://roza.kg/"}},{"type":"Feature","geometry":{"type":"Point","coordinates":[73.5474265,40.5654785]},"properties":{"@id":"node/3446429141","addr:city":"Кенеш, Торгой","amenity":"kindergarten","name":"Садики на Жайлоо Торгой","name:en":"Jailoo Kindergartens, Torgoi","operator":"Международный общественный фонд (МОФ) “Инициатива Розы Отунбаевой”","phone":"+996 312 660 382","source":"Международный общественный фонд (МОФ) “Инициатива Розы Отунбаевой”","website":"https://roza.kg/"}},{"type":"Feature","geometry":{"type":"Point","coordinates":[73.4284175,40.6321807]},"properties":{"@id":"node/4196463402","amenity":"school","building":"yes","name":"С.Ш Акматалиев Ж"}},{"type":"Feature","geometry":{"type":"Point","coordinates":[73.6664645,40.6282493]},"properties":{"@id":"node/4581515189","amenity":"school","name":"Ажибек Юсупов","name:ru":"Ажибек Юсупов","operator":"еркебаева К."}},{"type":"Feature","geometry":{"type":"Point","coordinates":[74.2503232,40.3087067]},"properties":{"@id":"node/4706376508","addr:street":"Таштанкул уулу Малтабар улица","amenity":"school","name":"Кебек Мамаев","name:ru":"Кебек Мамаев"}},{"type":"Feature","geometry":{"type":"Point","coordinates":[73.4627015,40.6125818]},"properties":{"@id":"node/5747545879","addr:city":"Калматай","addr:street":"Турдумаматов Таштан улица","amenity":"school","name":"Апыз Калматов мектеби"}},{"type":"Feature","geometry":{"type":"Point","coordinates":[74.112258,40.420228]},"properties":{"@id":"manual/oy-tal/kulanchy-orunbekov-school","name":"Куланчы Орунбеков атындагы орто мектеп","source":"Oi-Tal local material","amenity":"school","villageSlug":"oy-tal","territorySlug":"oy-tal"}},{"type":"Feature","geometry":{"type":"Point","coordinates":[74.110719,40.422308]},"properties":{"@id":"manual/oy-tal/kazybek-ata-kindergarten","name":"Казыбек-Ата балдар бакчасы","source":"Oi-Tal local material","amenity":"kindergarten","villageSlug":"oy-tal","territorySlug":"oy-tal"}},{"type":"Feature","geometry":{"type":"Point","coordinates":[74.114298,40.460423]},"properties":{"@id":"manual/konduk/konduk-nuru-kindergarten","name":"\"Көңдүк нуру\" балдар бакчасы","source":"Oi-Tal local material","amenity":"kindergarten","villageSlug":"konduk","territorySlug":"oy-tal"}},{"type":"Feature","geometry":{"type":"Point","coordinates":[73.889484,40.555622]},"properties":{"@id":"manual/sary-bee/abdrakhman-begitaev-school","name":"Абдрахман Бегитаев атындагы орто мектеп","source":"Oi-Tal local material","amenity":"school","villageSlug":"sary-bee","territorySlug":"oy-tal"}},{"type":"Feature","geometry":{"type":"Point","coordinates":[73.890726,40.556235]},"properties":{"@id":"manual/sary-bee/moltur-kindergarten","name":"\"Мөлтүр\" бала бакчасы","source":"Oi-Tal local material","amenity":"kindergarten","villageSlug":"sary-bee","territorySlug":"oy-tal"}},{"type":"Feature","geometry":{"type":"Point","coordinates":[73.8249758,40.5308718]},"properties":{"@id":"manual/terek-suu/akun-turganbaev-school","name":"Акун Турганбаев атындагы орто мектеп","source":"Oi-Tal local material","amenity":"school","villageSlug":"terek-suu","territorySlug":"oy-tal"}},{"type":"Feature","geometry":{"type":"Point","coordinates":[73.793435,40.5341638]},"properties":{"@id":"manual/nichke-suu/preschool","name":"Ничке-Суу мектепке чейинки билим берүү уюму","source":"Oi-Tal local material","amenity":"kindergarten","villageSlug":"nichke-suu","territorySlug":"oy-tal"}},{"type":"Feature","geometry":{"type":"Point","coordinates":[74.00292,40.546084]},"properties":{"@id":"manual/kara-tash/ysak-jorokulov-school","name":"Ысак Жорокулов атындагы орто мектеп","source":"Oi-Tal local material","amenity":"school","villageSlug":"kara-tash","territorySlug":"oy-tal"}}]}
