{"type":"FeatureCollection","name":"kara-kulja-context-rivers","features":[{"type":"Feature","geometry":{"type":"LineString","coordinates":[[73.06247,40.7707],[73.04158,40.78166],[73.01977,40.78091],[72.9802,40.78986],[72.9649,40.79704],[72.96019,40.8038],[72.93775,40.81567],[72.92201,40.82924],[72.89552,40.83204],[72.83938,40.8573],[72.82805,40.85781],[72.8182,40.85418],[72.79769,40.85519],[72.77327,40.84744],[72.77172,40.84452],[72.76294,40.8448],[72.75355,40.84043],[72.74974,40.84241],[72.71421,40.84241],[72.70682,40.84629],[72.69449,40.84755],[72.68701,40.8428],[72.68324,40.847],[72.67029,40.85009],[72.6663,40.85455],[72.64693,40.85681],[72.64494,40.86165],[72.6407,40.86024],[72.62568,40.86334],[72.61672,40.85987],[72.60474,40.86348],[72.59234,40.86343],[72.57517,40.87319],[72.5619,40.87487],[72.54808,40.88164],[72.52817,40.88397],[72.48365,40.90318],[72.47464,40.90449],[72.42998,40.90396],[72.41144,40.90136],[72.39839,40.8928],[72.35421,40.88814],[72.3366,40.88164],[72.32516,40.88226],[72.31812,40.87162],[72.3162,40.85748]]},"properties":{"@id":"way/22933186","waterway":"river","name":"Qoradaryo","name:ky":"Кара-Дарыя","name:ru":"Kapaдарья","name:en":"Kara Darya"}},{"type":"Feature","geometry":{"type":"LineString","coordinates":[[72.97302,40.22498],[72.97942,40.24624],[72.97704,40.25229],[72.98086,40.25955],[72.97984,40.26332],[72.98774,40.27287],[72.99254,40.29168],[72.98857,40.30525],[72.9814,40.31579],[72.98183,40.32277],[72.9619,40.34172],[72.95729,40.34265],[72.95344,40.34941],[72.94858,40.3493],[72.9369,40.35725],[72.88832,40.37684]]},"properties":{"@id":"way/27012882","waterway":"river","name":"Ак-Буура","name:ru":"Ак-Буура","name:en":"Ak-Buura"}},{"type":"Feature","geometry":{"type":"LineString","coordinates":[[72.34918,41.06766],[72.34518,41.02822],[72.34878,41.0042],[72.34741,40.99435],[72.33674,40.97519],[72.33539,40.9591],[72.34535,40.92746],[72.34096,40.90776],[72.34235,40.90489],[72.33884,40.90236],[72.3397,40.89817],[72.33266,40.89465],[72.33211,40.88787],[72.32516,40.88226]]},"properties":{"@id":"way/27022672","waterway":"river"}},{"type":"Feature","geometry":{"type":"LineString","coordinates":[[72.53217,40.2295],[72.54311,40.23482],[72.55569,40.25245],[72.5926,40.28651],[72.60214,40.29302],[72.6314,40.30303],[72.63687,40.31413]]},"properties":{"@id":"way/27044360","waterway":"river","name":"Араван-Сай","name:ru":"Аравансай","name:en":"Aravan-Say"}},{"type":"Feature","geometry":{"type":"LineString","coordinates":[[74.2341,40.78247],[74.22535,40.78624],[74.21659,40.78208],[74.21384,40.77727],[74.20234,40.77051],[74.18603,40.75517],[74.17645,40.75135],[74.13462,40.76239],[74.11406,40.76212],[74.10901,40.75917],[74.09628,40.76058],[74.06525,40.75292],[74.05773,40.75714],[74.05411,40.76313],[74.04383,40.76419],[74.02383,40.77463],[74.01973,40.77935],[74.01842,40.78572],[73.99907,40.80618],[73.92276,40.8431],[73.92231,40.84609],[73.9063,40.85649],[73.89744,40.86766],[73.86549,40.87542],[73.86056,40.87471],[73.85655,40.87742],[73.84226,40.87714],[73.84057,40.88042],[73.83218,40.88405],[73.77899,40.88562],[73.76731,40.8832],[73.75366,40.88492],[73.7465,40.88166],[73.72215,40.88222],[73.71868,40.88014],[73.71315,40.88302],[73.69234,40.87755],[73.67564,40.86849],[73.65517,40.85092],[73.6441,40.84678],[73.64057,40.84875],[73.63425,40.8476],[73.61933,40.83912],[73.60719,40.82236],[73.59583,40.8145],[73.58364,40.81249],[73.56908,40.81691],[73.55415,40.81483],[73.53321,40.82197],[73.50591,40.81847],[73.49046,40.8134],[73.47742,40.80677],[73.4745,40.80028],[73.4678,40.79677],[73.45974,40.78663],[73.46059,40.78403],[73.45484,40.77398],[73.44703,40.7709],[73.44344,40.76645],[73.4306,40.76521],[73.42053,40.76027],[73.40782,40.75984],[73.37442,40.76635],[73.36017,40.76648],[73.35399,40.76856],[73.3509,40.77597],[73.33133,40.78065]]},"properties":{"@id":"way/27079518","waterway":"river","name":"Яссы","name:en":"Yassu"}},{"type":"Feature","geometry":{"type":"LineString","coordinates":[[73.3479,41.13917],[73.3258,41.13815],[73.32071,41.14262],[73.30099,41.1448],[73.29519,41.15114],[73.29197,41.15144],[73.28716,41.16059],[73.28107,41.1652],[73.26699,41.16841],[73.25539,41.16924],[73.24749,41.16593],[73.23502,41.16745],[73.20399,41.16041],[73.19987,41.15679],[73.18064,41.15602],[73.17858,41.14955],[73.16366,41.14252],[73.16107,41.13275],[73.15489,41.12809],[73.14117,41.12029],[73.12967,41.12027],[73.12624,41.11199],[73.09112,41.10174],[73.081,41.09158],[73.08092,41.07774],[73.06925,41.06205],[73.05414,41.05487],[73.04271,41.0557],[73.03611,41.05163],[73.01637,41.01518],[73.00264,41.00197],[72.99353,40.97871],[72.97879,40.97189],[72.95056,40.9461],[72.94702,40.93782],[72.93796,40.93024],[72.90139,40.87555],[72.89191,40.8695],[72.88882,40.87158],[72.87852,40.87002],[72.87017,40.86274],[72.85328,40.86528],[72.83544,40.86253],[72.82805,40.85781]]},"properties":{"@id":"way/27079787","waterway":"river","name":"Көк-Арт","name:ky":"Көк-Арт","name:ru":"Кёк-Арт"}},{"type":"Feature","geometry":{"type":"LineString","coordinates":[[72.68804,40.73576],[72.66516,40.73179],[72.65453,40.73637],[72.65253,40.73983],[72.63682,40.74089],[72.62816,40.74437],[72.6245,40.74417],[72.62572,40.74196],[72.61848,40.73863],[72.61522,40.74003]]},"properties":{"@id":"way/27282017","waterway":"river","name":"Andijonsoy","name:ru":"Андижансай","name:en":"Andizhan-Say"}},{"type":"Feature","geometry":{"type":"LineString","coordinates":[[73.04658,40.76577],[73.04089,40.7689],[73.01747,40.76987],[73.00376,40.77543],[72.96712,40.78257],[72.94905,40.78367],[72.934,40.77878],[72.91972,40.76991],[72.91318,40.75844],[72.91363,40.74699]]},"properties":{"@id":"way/27282030","waterway":"river","name":"Andijonsoy","name:ru":"Андижансай","name:en":"Andizhan-Say"}},{"type":"Feature","geometry":{"type":"LineString","coordinates":[[74.59368,40.80967],[74.56603,40.81333],[74.5561,40.81774],[74.53717,40.81865],[74.52445,40.81268],[74.51765,40.81358],[74.48872,40.82449],[74.47353,40.82021],[74.45709,40.82446],[74.44999,40.82243],[74.44589,40.81689],[74.42096,40.81413],[74.4025,40.82469],[74.39173,40.82092],[74.3621,40.82321],[74.34743,40.82774],[74.33774,40.82723],[74.33046,40.82988],[74.32255,40.84105],[74.31026,40.85046],[74.30778,40.86236],[74.31185,40.87121],[74.31096,40.87427],[74.32044,40.88202]]},"properties":{"@id":"way/27377479","waterway":"river","name":"Арпа","name:en":"Arpa"}},{"type":"Feature","geometry":{"type":"LineString","coordinates":[[74.60175,40.57411],[74.60896,40.6024],[74.61325,40.61035],[74.62149,40.61713],[74.62218,40.6213],[74.61428,40.63589],[74.61102,40.64878],[74.60261,40.65491],[74.60515,40.68586],[74.59859,40.69631],[74.59832,40.70854],[74.59437,40.71973],[74.59384,40.7512],[74.59762,40.76005],[74.58903,40.77227],[74.58222,40.8114]]},"properties":{"@id":"way/27377486","waterway":"river","name":"Каракол","name:en":"Karakol"}},{"type":"Feature","geometry":{"type":"LineString","coordinates":[[74.7814,40.96008],[74.7743,40.96892],[74.77449,40.97654],[74.77029,40.98411],[74.77321,41.00166],[74.76694,41.01239],[74.7667,41.03914],[74.77283,41.05895],[74.77906,41.06477],[74.77683,41.07422],[74.75993,41.11175],[74.74568,41.12288],[74.74088,41.13128],[74.73762,41.14279],[74.73882,41.14757],[74.73229,41.16566],[74.71816,41.19192],[74.71456,41.21827],[74.69482,41.23906],[74.68194,41.26138],[74.68452,41.28151],[74.6907,41.29144],[74.68944,41.30027],[74.69171,41.31416],[74.69015,41.31813],[74.68435,41.32153],[74.68435,41.32631],[74.67789,41.33611]]},"properties":{"@id":"way/27378231","waterway":"river","name":"Жаман даван-Суу"}},{"type":"Feature","geometry":{"type":"LineString","coordinates":[[74.25489,41.00792],[74.25142,41.01382],[74.25286,41.01708],[74.24956,41.01908],[74.25295,41.02334],[74.24881,41.02675],[74.25592,41.02829],[74.25329,41.03408],[74.25757,41.03605],[74.25541,41.04058],[74.25993,41.04164],[74.2601,41.04786],[74.26594,41.04758],[74.26611,41.05514],[74.27438,41.06081],[74.28553,41.06411],[74.28782,41.06947],[74.29376,41.07195],[74.29997,41.07941],[74.29972,41.08206],[74.30641,41.08351],[74.31024,41.09348],[74.31783,41.1014],[74.32146,41.10155],[74.321,41.10466],[74.32716,41.10743],[74.33133,41.11968],[74.3395,41.12278],[74.33992,41.12632],[74.34606,41.12734],[74.34593,41.13076],[74.3499,41.13157],[74.34885,41.13364],[74.35674,41.13571]]},"properties":{"@id":"way/27379200","waterway":"river"}},{"type":"Feature","geometry":{"type":"LineString","coordinates":[[74.55189,40.57827],[74.55468,40.58127],[74.54953,40.60076],[74.53544,40.60771],[74.51413,40.60607],[74.50562,40.61022],[74.47438,40.61465],[74.4452,40.61478],[74.42091,40.61922],[74.39217,40.61768],[74.37861,40.62232],[74.36291,40.62233],[74.32822,40.63136],[74.32396,40.63483],[74.28584,40.64387],[74.27629,40.64398],[74.27115,40.647],[74.27044,40.65281],[74.26649,40.65438],[74.23868,40.64891],[74.23593,40.6463],[74.20162,40.65078],[74.18649,40.64578],[74.16562,40.64341],[74.15508,40.63849],[74.14752,40.64022],[74.12515,40.63663],[74.11176,40.63962],[74.10455,40.63585],[74.09826,40.63783],[74.08745,40.63236],[74.07663,40.63653],[74.05758,40.63627],[74.04711,40.64044],[74.03698,40.63966],[74.01741,40.64943],[73.98938,40.64341],[73.98466,40.6457],[73.97117,40.64594],[73.94789,40.65516],[73.93038,40.65815],[73.92001,40.65733],[73.90817,40.66189],[73.88997,40.6632],[73.86296,40.66097],[73.85116,40.65518],[73.8474,40.65786],[73.82663,40.65538],[73.79762,40.65773],[73.77376,40.6563],[73.75831,40.64939],[73.75007,40.649],[73.74389,40.64379],[73.73393,40.64028],[73.69359,40.63884],[73.68881,40.63799],[73.68454,40.63276],[73.67407,40.63065],[73.65634,40.63428],[73.63403,40.62891],[73.58882,40.64198],[73.56898,40.64078],[73.54734,40.64483],[73.53481,40.65069],[73.49292,40.66007],[73.48277,40.66557],[73.4273,40.64983],[73.42335,40.64546]]},"properties":{"@id":"way/27382933","waterway":"river","name":"Кара-Кулжа","name:ru":"Кара-Кульджа","name:en":"Kara-Kulja"}},{"type":"Feature","geometry":{"type":"LineString","coordinates":[[73.98995,40.98694],[73.9812,40.98008],[73.96128,40.97748],[73.93708,40.9666],[73.92592,40.96388],[73.91194,40.96737],[73.89863,40.96232],[73.89416,40.95882],[73.89279,40.94923],[73.88186,40.94029],[73.86401,40.93161],[73.84272,40.93109],[73.83244,40.93366],[73.82044,40.93051],[73.81889,40.92686],[73.79951,40.91585],[73.77567,40.88538]]},"properties":{"@id":"way/27383046","waterway":"river"}},{"type":"Feature","geometry":{"type":"LineString","coordinates":[[73.37024,40.68444],[73.35604,40.71863],[73.34407,40.72847],[73.31287,40.74273],[73.30453,40.74876],[73.30539,40.75157],[73.30016,40.75648],[73.28721,40.76162],[73.26277,40.76217],[73.24897,40.7665],[73.21,40.76151],[73.19507,40.76421]]},"properties":{"@id":"way/27387285","waterway":"river","name":"Карадарья","name:ky":"Кара-Дарыя","name:ru":"Карадарья"}},{"type":"Feature","geometry":{"type":"LineString","coordinates":[[74.78728,40.40959],[74.76477,40.39972],[74.73485,40.40213],[74.72115,40.39647],[74.6988,40.39774],[74.62076,40.38322],[74.59603,40.38734],[74.5833,40.38568],[74.57461,40.38184],[74.56829,40.37472],[74.54864,40.36474],[74.54158,40.36365],[74.52796,40.35223],[74.50414,40.34543],[74.48611,40.3453],[74.46174,40.34072],[74.44525,40.33477],[74.42946,40.32423],[74.4171,40.32214],[74.41298,40.30669],[74.40371,40.29269],[74.38093,40.27343],[74.37445,40.2625],[74.36271,40.26398],[74.35322,40.27275],[74.34797,40.27454],[74.32081,40.27414],[74.30482,40.27913],[74.29093,40.30355],[74.27754,40.3135],[74.24337,40.31471],[74.20647,40.3087],[74.20472,40.31369],[74.19177,40.32028],[74.1874,40.32514],[74.17349,40.33169],[74.16682,40.33107],[74.16219,40.33514]]},"properties":{"@id":"way/27387302","waterway":"river","name":"Алай-Куу","name:ky":"Алай-Куу","name:ru":"Алай-Куу","name:en":"Alay-Kuu"}},{"type":"Feature","geometry":{"type":"LineString","coordinates":[[74.82773,40.50196],[74.84076,40.48753],[74.84394,40.47677],[74.84275,40.46291],[74.84654,40.45144],[74.86396,40.43643],[74.88748,40.42558],[74.88919,40.42101],[74.90344,40.41774],[74.90413,40.41369],[74.91872,40.40127],[74.92696,40.39905],[74.93245,40.39317],[74.94859,40.38663],[74.98269,40.37498],[74.98819,40.37617],[75.03734,40.37081],[75.06412,40.36129],[75.08472,40.35901],[75.10593,40.34993],[75.12326,40.33533],[75.13155,40.33184],[75.13945,40.31869],[75.14539,40.3164],[75.15041,40.30877],[75.17226,40.29164],[75.17655,40.28101],[75.19906,40.26222],[75.2024,40.25646],[75.22359,40.24409],[75.23557,40.21837],[75.25212,40.20741],[75.26593,40.20372],[75.28615,40.19029],[75.29139,40.17491],[75.30862,40.16005],[75.31742,40.15796],[75.32281,40.16135],[75.33311,40.1628],[75.33819,40.1604],[75.34912,40.14847],[75.36419,40.14078],[75.37379,40.12531]]},"properties":{"@id":"way/27428756","waterway":"river","name":"苏约克河"}},{"type":"Feature","geometry":{"type":"LineString","coordinates":[[73.47246,40.89585],[73.45887,40.88614],[73.44868,40.87506],[73.43543,40.85449],[73.42095,40.84235],[73.40719,40.83901],[73.39281,40.82075],[73.38608,40.81713],[73.35726,40.81355],[73.35031,40.80736],[73.34056,40.80919],[73.33326,40.80715],[73.32893,40.80952],[73.30333,40.80405],[73.27787,40.80969],[73.26415,40.80641]]},"properties":{"@id":"way/27429155","waterway":"river"}},{"type":"Feature","geometry":{"type":"LineString","coordinates":[[73.55968,41.00774],[73.56215,40.99786],[73.56059,40.98972],[73.55621,40.97564],[73.54618,40.96259],[73.54709,40.95879],[73.5431,40.95304],[73.54333,40.94611],[73.53964,40.93741],[73.5354,40.93202],[73.51817,40.92538],[73.50459,40.9161],[73.49576,40.90355],[73.48475,40.8979],[73.47246,40.89585]]},"properties":{"@id":"way/27429163","waterway":"river"}},{"type":"Feature","geometry":{"type":"LineString","coordinates":[[73.14898,40.35732],[73.12298,40.37488],[73.11697,40.38169],[73.11574,40.38797],[73.10447,40.39807],[73.10488,40.40728],[73.09556,40.41705],[73.09196,40.42862],[73.08297,40.43939],[73.0777,40.45284],[73.05855,40.4764],[73.05735,40.48201],[73.04236,40.50417],[73.03401,40.51034],[73.0286,40.51934],[73.0168,40.53068],[72.98539,40.54764],[72.9808,40.55726],[72.98321,40.57304],[72.97557,40.60135]]},"properties":{"@id":"way/27712519","waterway":"river","name":"Талдык","name:ru":"Талдык","name:en":"Кичи-Талдык"}},{"type":"Feature","geometry":{"type":"LineString","coordinates":[[72.61353,40.67176],[72.58988,40.67152],[72.54852,40.68489],[72.54145,40.69093],[72.52612,40.69286],[72.50606,40.68878],[72.49221,40.677],[72.46527,40.66457]]},"properties":{"@id":"way/27734757","waterway":"river","name":"Shahrixon soy","name:ru":"Шаарихан-Сай","name:en":"Shaarikhan-Say"}},{"type":"Feature","geometry":{"type":"LineString","coordinates":[[73.33133,40.78065],[73.31846,40.78939],[73.30179,40.79316],[73.27348,40.80638],[73.24688,40.80989],[73.22823,40.81667],[73.22118,40.82246],[73.21593,40.82035]]},"properties":{"@id":"way/28552086","waterway":"river","name":"Яссы","name:en":"Yassu"}},{"type":"Feature","geometry":{"type":"LineString","coordinates":[[75.08131,40.54122],[75.08017,40.54542],[75.07067,40.55348],[75.04458,40.56939],[75.03291,40.58947],[75.01322,40.61413],[74.98902,40.66637],[74.96894,40.68095],[74.94662,40.70607],[74.93495,40.71453],[74.92825,40.72767],[74.91692,40.73586],[74.908,40.75121],[74.89701,40.75823],[74.8656,40.7698],[74.858,40.77648],[74.8543,40.77615]]},"properties":{"@id":"way/38100286","waterway":"river","name":"Мустыр"}},{"type":"Feature","geometry":{"type":"LineString","coordinates":[[74.66068,40.55835],[74.66352,40.56116],[74.6763,40.56292],[74.68815,40.55985],[74.71132,40.54837],[74.7363,40.55835],[74.8046,40.56691],[74.82537,40.57904],[74.84768,40.58165],[74.8573,40.58947],[74.85901,40.59742],[74.86313,40.60263],[74.85897,40.61066],[74.84164,40.62122],[74.8255,40.63607],[74.8037,40.66316],[74.76353,40.70325],[74.71667,40.74163],[74.70036,40.74931],[74.69229,40.7601],[74.67787,40.78894]]},"properties":{"@id":"way/38100329","waterway":"river","name":"Суек","name:en":"Suek river"}},{"type":"Feature","geometry":{"type":"LineString","coordinates":[[74.03102,41.05611],[74.03568,41.05533],[74.0405,41.05039],[74.04879,41.03475],[74.06031,41.03023],[74.0634,41.02125],[74.07976,41.00998],[74.09342,40.99479],[74.0925,40.99272],[74.12947,40.97291],[74.167,40.971],[74.18099,40.97579],[74.19041,40.97341],[74.2107,40.98086],[74.2108,40.98274],[74.2232,40.98557],[74.233,40.99458],[74.24944,41.00242],[74.25489,41.00792]]},"properties":{"@id":"way/62087632","waterway":"river","name":"Пчан","name:ky":"Пчан","name:en":"Pchan"}},{"type":"Feature","geometry":{"type":"LineString","coordinates":[[74.58437,40.93769],[74.52188,40.94391],[74.50929,40.94029],[74.49916,40.94198],[74.48063,40.95305],[74.46541,40.95719],[74.45916,40.96415],[74.44543,40.97115],[74.43599,40.98009],[74.39891,40.99085],[74.37304,41.01001],[74.35911,41.01339],[74.34341,41.0111],[74.31169,41.01472],[74.30112,41.00977],[74.28321,40.99292]]},"properties":{"@id":"way/62087682","waterway":"river","name":"Ичкашкасу","name:en":"Ichkashkasu"}},{"type":"Feature","geometry":{"type":"LineString","coordinates":[[74.45804,40.68832],[74.46546,40.69174],[74.47409,40.69079],[74.50293,40.74615],[74.51039,40.75259],[74.50156,40.77697],[74.50082,40.78896],[74.49396,40.7962],[74.49039,40.8155],[74.48344,40.82277]]},"properties":{"@id":"way/62087705","waterway":"river","name":"Чон-Коман","name:en":"Chong-Koman"}},{"type":"Feature","geometry":{"type":"LineString","coordinates":[[74.40851,40.70511],[74.43453,40.72458],[74.43635,40.74966],[74.44131,40.76735],[74.44493,40.7722],[74.4442,40.77666]]},"properties":{"@id":"way/62087737","waterway":"river","name":"Очи-Коман","name:en":"Ochi-Koman"}},{"type":"Feature","geometry":{"type":"LineString","coordinates":[[74.24677,40.51391],[74.22964,40.50384],[74.16296,40.50378],[74.15321,40.49687],[74.14116,40.46843]]},"properties":{"@id":"way/62087801","waterway":"river","name":"Кулун","name:en":"Kulun"}},{"type":"Feature","geometry":{"type":"LineString","coordinates":[[74.14116,40.46843],[74.12956,40.46093],[74.10702,40.45677],[74.07669,40.46208],[74.05581,40.46194]]},"properties":{"@id":"way/62087803","waterway":"river","name":"Кулун","name:en":"Kulun"}},{"type":"Feature","geometry":{"type":"LineString","coordinates":[[74.7913,40.52487],[74.8023,40.51643],[74.80123,40.5106],[74.78655,40.48999],[74.75035,40.48402],[74.73692,40.47504],[74.71149,40.46873],[74.68536,40.45884],[74.67473,40.44947],[74.67112,40.4413],[74.65714,40.43638],[74.65228,40.43089],[74.64875,40.41899],[74.6404,40.41067],[74.63744,40.39725],[74.63036,40.38578]]},"properties":{"@id":"way/62087847","waterway":"river"}},{"type":"Feature","geometry":{"type":"LineString","coordinates":[[74.89849,40.34409],[74.86694,40.34639],[74.8581,40.35564],[74.8394,40.36783],[74.83836,40.37316],[74.82439,40.38091],[74.82413,40.38477],[74.82034,40.38781],[74.8042,40.39604],[74.80188,40.40037],[74.80297,40.40654],[74.80008,40.40977],[74.79424,40.41212],[74.78728,40.40959]]},"properties":{"@id":"way/62087891","waterway":"river","name":"Алай-Куу","name:ky":"Алай-Куу","name:ru":"Алай-Куу","name:en":"Alay-Kuu"}},{"type":"Feature","geometry":{"type":"LineString","coordinates":[[74.89259,40.28748],[74.86374,40.28827],[74.84898,40.30003],[74.84067,40.30192],[74.79005,40.30444],[74.75857,40.29622],[74.73416,40.28142],[74.72676,40.27142],[74.73811,40.25235],[74.7335,40.24516],[74.72437,40.2391],[74.70945,40.23583],[74.70343,40.23715],[74.69035,40.23019],[74.6773,40.21258],[74.65703,40.20345],[74.63826,40.1914],[74.61694,40.16898],[74.63694,40.13606],[74.6351,40.12615],[74.64682,40.11418],[74.64511,40.10059],[74.64692,40.09731],[74.63408,40.08602],[74.6374,40.07146],[74.62408,40.06347],[74.60833,40.0627],[74.59943,40.05761],[74.59645,40.05202],[74.5934,40.05424],[74.5889,40.05347],[74.59062,40.0494],[74.58774,40.04768],[74.59197,40.04465],[74.58636,40.03635],[74.58407,40.02032],[74.574,40.01467],[74.56422,40.01059],[74.53503,40.0123],[74.4971,40.0052],[74.49555,39.99954],[74.48944,39.99452],[74.4818,39.98189],[74.47234,39.97729],[74.46198,39.95806],[74.45219,39.95607],[74.43925,39.94666],[74.43448,39.93643],[74.43024,39.93301],[74.43241,39.92715],[74.42949,39.91834],[74.41536,39.91628],[74.40293,39.90674],[74.40012,39.9005],[74.38964,39.89171],[74.37929,39.88959],[74.3761,39.88399],[74.36601,39.88372],[74.35761,39.87718],[74.3568,39.87286],[74.36079,39.8656],[74.35012,39.8518],[74.34877,39.83986],[74.34474,39.83689],[74.34728,39.83282]]},"properties":{"@id":"way/62088007","waterway":"river","name":"卓尤勒汗苏河","name:ru":"Ушташ","name:en":"Ushtash"}},{"type":"Feature","geometry":{"type":"LineString","coordinates":[[73.9217,39.69769],[73.92692,39.70021],[73.92862,39.70824],[73.93236,39.70996],[73.95497,39.71105],[73.97856,39.72249],[73.99859,39.72231],[74.01593,39.72983],[74.02863,39.73089],[74.07824,39.75055],[74.11618,39.77259],[74.14794,39.77286],[74.16476,39.76771],[74.18089,39.77522],[74.196,39.77853],[74.22334,39.79701],[74.29894,39.80736],[74.31188,39.81358],[74.31054,39.82053],[74.31782,39.82744],[74.32693,39.83136],[74.34728,39.83282]]},"properties":{"@id":"way/62088165","waterway":"river","name":"克孜勒苏河","name:ky":"Кызылсу","name:ru":"Кызылсу","name:en":"Kyzylsu"}},{"type":"Feature","geometry":{"type":"LineString","coordinates":[[73.2173,40.35444],[73.24704,40.37205],[73.25399,40.37199],[73.25738,40.36934],[73.2617,40.37204],[73.26042,40.38226],[73.26253,40.38839],[73.25782,40.40152],[73.25952,40.42174],[73.26111,40.4271],[73.26777,40.43341]]},"properties":{"@id":"way/62208352","waterway":"river","name":"Бак-Арча","name:ru":"Бак-Арча","name:en":"Bak-Archa"}},{"type":"Feature","geometry":{"type":"LineString","coordinates":[[73.2538,40.22191],[73.24296,40.2438],[73.23345,40.25698],[73.21945,40.26901],[73.19977,40.27783],[73.19538,40.29207],[73.16169,40.30563],[73.14948,40.31527],[73.14297,40.32592],[73.14277,40.33415],[73.14344,40.34561],[73.14861,40.35445]]},"properties":{"@id":"way/62208354","waterway":"river","name":"Кичи-Талдык","name:ru":"Кичи-Талдык","name:en":"Kichi-Taldyk"}},{"type":"Feature","geometry":{"type":"LineString","coordinates":[[73.52764,40.12849],[73.5238,40.12815],[73.51521,40.13579],[73.51551,40.15087],[73.51161,40.15188],[73.51506,40.15982],[73.51223,40.16249],[73.51128,40.17085],[73.50759,40.17451],[73.48406,40.18056],[73.48098,40.18823],[73.48039,40.20424],[73.47745,40.20712],[73.47884,40.2102],[73.47576,40.21265],[73.47094,40.22954],[73.47136,40.23267],[73.48537,40.23972],[73.48822,40.24508],[73.48982,40.25613],[73.4855,40.26058],[73.48609,40.26807],[73.47914,40.27824],[73.47462,40.28036],[73.46738,40.30088],[73.44776,40.30705],[73.43812,40.30736]]},"properties":{"@id":"way/62208355","waterway":"river","name":"Гүлчө","name:ky":"Гүлчө","name:ru":"Гульча","name:en":"Gülchö"}},{"type":"Feature","geometry":{"type":"LineString","coordinates":[[73.81503,40.26054],[73.80282,40.26683],[73.79479,40.26748],[73.7746,40.25701],[73.74738,40.25088],[73.70727,40.23424],[73.69721,40.23553],[73.67713,40.22505],[73.66193,40.22422],[73.6557,40.21808],[73.656,40.2122],[73.65314,40.20735],[73.64528,40.20028],[73.62978,40.19357],[73.61882,40.18184],[73.5994,40.17157]]},"properties":{"@id":"way/62208385","waterway":"river","name":"Кичи-Бүлөлү","name:ru":"Кичи-Бюлелю","name:en":"Kichi-Bülölü"}},{"type":"Feature","geometry":{"type":"LineString","coordinates":[[73.93971,40.21259],[73.95074,40.22187],[73.95549,40.23019],[73.97863,40.24348],[74.00587,40.24861]]},"properties":{"@id":"way/62208401","waterway":"river","name":"Домбра","name:ru":"Домбра","name:en":"Dombra"}},{"type":"Feature","geometry":{"type":"LineString","coordinates":[[74.01366,40.16051],[74.03516,40.17328],[74.05402,40.17542],[74.0898,40.19285],[74.09144,40.19857],[74.0884,40.2105],[74.09215,40.21492],[74.09342,40.22958],[74.09843,40.23868],[74.10396,40.24176],[74.10715,40.25214],[74.11085,40.25408],[74.1157,40.26967],[74.12522,40.27853],[74.12546,40.28576],[74.13597,40.29285],[74.14432,40.30866],[74.16149,40.32194],[74.16682,40.33107]]},"properties":{"@id":"way/62208402","waterway":"river","name":"Орто-Казык","name:ky":"Орто-Казык","name:en":"Orto-Kazyk"}},{"type":"Feature","geometry":{"type":"LineString","coordinates":[[74.63605,40.48445],[74.63214,40.50049],[74.5823,40.51049],[74.56036,40.50891],[74.54589,40.50505],[74.51493,40.48876],[74.47993,40.48325],[74.46893,40.4757],[74.43235,40.46253],[74.39622,40.4607],[74.37934,40.45687],[74.36585,40.44804],[74.3127,40.42849],[74.31273,40.42607],[74.30408,40.42052],[74.29448,40.39812],[74.28469,40.38635],[74.25397,40.37748],[74.23196,40.36147],[74.21315,40.36041],[74.20172,40.3565],[74.20031,40.35079],[74.18771,40.33861],[74.17294,40.33429],[74.16219,40.33514]]},"properties":{"@id":"way/62208405","waterway":"river","name":"Терек суусу","name:ky":"Терек суусу","name:ru":"Терек-су","name:en":"Terek-Suu"}},{"type":"Feature","geometry":{"type":"LineString","coordinates":[[75.07983,40.76967],[75.07365,40.77708],[75.05477,40.78657],[75.02696,40.78761],[74.99932,40.7958],[74.9667,40.78813]]},"properties":{"@id":"way/62208472","waterway":"river","name":"Кызылкюнгей"}},{"type":"Feature","geometry":{"type":"LineString","coordinates":[[74.89238,40.90682],[74.90285,40.89942],[74.94765,40.89345],[74.96276,40.88761],[74.97271,40.88047],[74.97821,40.87282],[74.98061,40.86412],[74.97374,40.85477],[74.97649,40.8475],[74.9734,40.83776],[74.97632,40.83023],[74.9966,40.80423]]},"properties":{"@id":"way/62208474","waterway":"river"}},{"type":"Feature","geometry":{"type":"LineString","coordinates":[[74.9195,40.93782],[74.98284,40.9111],[74.98267,40.90305],[74.98524,40.89812],[75.01237,40.88398],[75.05048,40.85841]]},"properties":{"@id":"way/62208486","waterway":"river"}},{"type":"Feature","geometry":{"type":"LineString","coordinates":[[75.11639,40.70242],[75.11039,40.70841],[75.1097,40.71908],[75.08155,40.73794],[75.0661,40.7421],[75.03091,40.74444],[75.01151,40.74874],[75.00447,40.75862],[74.98662,40.77097],[74.977,40.78345],[74.9667,40.78813]]},"properties":{"@id":"way/62208488","waterway":"river","name":"Карганташ"}},{"type":"Feature","geometry":{"type":"LineString","coordinates":[[75.18626,40.69318],[75.17974,40.68863],[75.15141,40.6855],[75.12892,40.67912],[75.10661,40.65647],[75.09665,40.65113],[75.08515,40.65074],[75.0546,40.64188],[75.04309,40.64344],[75.02627,40.65152],[75.02047,40.66561],[75.00087,40.68303],[74.98593,40.69032],[74.97529,40.6993],[74.94817,40.73209],[74.92087,40.74848],[74.90885,40.76577],[74.90439,40.76746],[74.89029,40.7861],[74.88431,40.78943]]},"properties":{"@id":"way/62208500","waterway":"river","name":"Карасу"}},{"type":"Feature","geometry":{"type":"LineString","coordinates":[[75.07443,40.58863],[75.07294,40.59525],[75.0557,40.60566],[75.05992,40.63381],[75.03983,40.64201],[75.0349,40.6465]]},"properties":{"@id":"way/62208503","waterway":"river"}},{"type":"Feature","geometry":{"type":"LineString","coordinates":[[74.87229,40.47455],[74.91641,40.45588],[74.95589,40.44295],[74.97048,40.42923],[74.97357,40.41773]]},"properties":{"@id":"way/62208512","waterway":"river"}},{"type":"Feature","geometry":{"type":"LineString","coordinates":[[75.03022,40.52964],[75.03262,40.53655],[75.04069,40.54281],[75.0376,40.55051],[75.0273,40.55494],[75.02335,40.58037],[75.00842,40.59184],[74.98851,40.60253],[74.97683,40.62364],[74.96982,40.62965]]},"properties":{"@id":"way/62208641","waterway":"river"}},{"type":"Feature","geometry":{"type":"LineString","coordinates":[[74.91881,40.51933],[74.92585,40.52572],[74.93083,40.54347],[74.92963,40.55012],[74.92259,40.55755],[74.91435,40.56042],[74.89203,40.5779],[74.88688,40.58793],[74.88242,40.62195],[74.87298,40.65152],[74.86611,40.6665],[74.84071,40.70138],[74.83865,40.70997],[74.84002,40.71726],[74.83487,40.73248],[74.82766,40.73703],[74.8176,40.75225]]},"properties":{"@id":"way/62208702","waterway":"river"}},{"type":"Feature","geometry":{"type":"LineString","coordinates":[[74.8565,40.89228],[74.84517,40.88476],[74.84174,40.86191],[74.83693,40.85049],[74.83865,40.8436],[74.83676,40.83893],[74.84208,40.82529],[74.84071,40.8084],[74.84596,40.78393],[74.84566,40.77154]]},"properties":{"@id":"way/62208727","waterway":"river","name":"Коджагул"}},{"type":"Feature","geometry":{"type":"LineString","coordinates":[[74.65136,40.94112],[74.68967,40.94265],[74.70637,40.95003],[74.74808,40.94256],[74.78009,40.95311],[74.7814,40.96008]]},"properties":{"@id":"way/62208736","waterway":"river","name":"Сырткашкасу","name:en":"Syrtkashkasu"}},{"type":"Feature","geometry":{"type":"LineString","coordinates":[[72.45485,40.05105],[72.47903,40.06966],[72.48637,40.08539],[72.48329,40.10261],[72.49081,40.11329],[72.49173,40.12652],[72.50028,40.13718],[72.50261,40.15513],[72.50719,40.1611],[72.50594,40.16709],[72.50889,40.17478],[72.51681,40.18955],[72.52596,40.19834],[72.52524,40.20886],[72.53128,40.21755],[72.53032,40.2263],[72.53217,40.2295]]},"properties":{"@id":"way/62209525","waterway":"river","name":"Чилисай","name:ky":"Чилисай","name:en":"Chilisay"}},{"type":"Feature","geometry":{"type":"LineString","coordinates":[[72.54523,40.01184],[72.53325,40.02742],[72.50535,40.03947],[72.49365,40.05531],[72.48376,40.05826],[72.47903,40.06966]]},"properties":{"@id":"way/62209560","waterway":"river","name":"Ак-Дөбө","name:ky":"Ак-Дөбө","name:ru":"Актюбе","name:en":"Ak-Döbö"}},{"type":"Feature","geometry":{"type":"LineString","coordinates":[[72.60702,40.06311],[72.59344,40.07891],[72.59416,40.09445],[72.6024,40.11595],[72.60756,40.12356],[72.62239,40.13494],[72.64085,40.1451],[72.65723,40.1782],[72.67628,40.1917],[72.67692,40.19999]]},"properties":{"@id":"way/62209574","waterway":"river","name":"Кыргыз-Ата","name:ru":"Кыргыз-Ата","name:en":"Kyrgyz-Ata"}},{"type":"Feature","geometry":{"type":"LineString","coordinates":[[72.69796,40.11463],[72.69569,40.12454],[72.69872,40.13877],[72.71002,40.14623],[72.72377,40.14772],[72.73268,40.15481],[72.73566,40.1797],[72.7396,40.18428],[72.74049,40.19059],[72.75366,40.20753],[72.75034,40.22372],[72.74538,40.22887],[72.73934,40.24535],[72.74799,40.25725]]},"properties":{"@id":"way/62209576","waterway":"river","name":"Шанкол","name:ky":"Шанкол","name:en":"Shankol"}},{"type":"Feature","geometry":{"type":"LineString","coordinates":[[72.79432,40.23323],[72.78722,40.23919],[72.74277,40.26022],[72.71704,40.28874],[72.70546,40.29811],[72.67112,40.31302],[72.65247,40.31536],[72.64997,40.32519],[72.6472,40.32718],[72.64903,40.32968],[72.64573,40.33811],[72.63845,40.34514],[72.63619,40.3516],[72.62847,40.35323],[72.61485,40.3515]]},"properties":{"@id":"way/62209671","waterway":"river","name":"Кыркколсай","name:en":"Kyrkkolsay"}},{"type":"Feature","geometry":{"type":"LineString","coordinates":[[72.81006,40.14927],[72.79742,40.15299],[72.79533,40.16108],[72.80028,40.16793],[72.80986,40.17393],[72.81027,40.18112],[72.81561,40.19078],[72.81372,40.19443],[72.81761,40.20264],[72.79432,40.23323]]},"properties":{"@id":"way/62209678","waterway":"river","name":"Хошчан","name:ky":"Хошчан","name:en":"Khoshchan"}},{"type":"Feature","geometry":{"type":"LineString","coordinates":[[72.75751,39.91361],[72.76871,39.92778],[72.77481,39.93191],[72.77932,39.93127],[72.78674,39.93459],[72.79905,39.94856],[72.80343,39.95854],[72.80189,39.9701],[72.80677,39.97691],[72.81677,39.98395],[72.83253,39.98216],[72.84913,39.98522],[72.86914,39.98156],[72.87754,39.98349],[72.88952,39.9892],[72.90391,40.00123],[72.90326,40.00382],[72.90775,40.00899],[72.91683,40.0152],[72.92052,40.02574],[72.94094,40.03807]]},"properties":{"@id":"way/62209715","waterway":"river","name":"Восточный Кичик-Алай","name:en":"Eastern Kichik-Alay"}},{"type":"Feature","geometry":{"type":"LineString","coordinates":[[72.79935,40.04072],[72.80818,40.04556],[72.82487,40.04758],[72.83843,40.04758],[72.84376,40.04381],[72.85242,40.0428],[72.8642,40.04942],[72.87738,40.04254],[72.89074,40.04527],[72.89646,40.03617],[72.9208,40.02583]]},"properties":{"@id":"way/62209716","waterway":"river","name":"Чөгөм","name:en":"Chögöm"}},{"type":"Feature","geometry":{"type":"LineString","coordinates":[[72.95416,39.84421],[72.95697,39.86629],[72.95468,39.86914],[72.95585,39.87878],[72.96336,39.88402],[72.96601,39.89084],[72.97969,39.90439],[72.96775,39.91558],[72.94238,39.92459],[72.93861,39.94001],[72.95209,39.9586],[72.96487,39.96549],[72.98289,39.98264],[72.98215,39.9908]]},"properties":{"@id":"way/62209722","waterway":"river","name":"Северный Джиптик-Суу","name:en":"North Jiptik-Suu"}},{"type":"Feature","geometry":{"type":"LineString","coordinates":[[72.58387,39.8569],[72.58829,39.85644],[72.59934,39.86402],[72.61676,39.86966],[72.62183,39.8691],[72.63398,39.87536],[72.66377,39.87811],[72.67835,39.88504],[72.68604,39.88576],[72.6925,39.88908],[72.70102,39.90126],[72.71597,39.89809],[72.72129,39.90318],[72.72559,39.90161],[72.7405,39.90557],[72.74916,39.91216],[72.75751,39.91361]]},"properties":{"@id":"way/62209761","waterway":"river","name":"Восточный Кичик-Алай","name:en":"Eastern Kichik-Alay"}},{"type":"Feature","geometry":{"type":"LineString","coordinates":[[72.705,39.82567],[72.70829,39.83928],[72.69979,39.85104],[72.69844,39.86463],[72.70295,39.88341],[72.70246,39.89554],[72.7057,39.89984]]},"properties":{"@id":"way/62209846","waterway":"river","name":"Киндык","name:en":"Kindyk"}},{"type":"Feature","geometry":{"type":"LineString","coordinates":[[72.70238,39.75861],[72.6974,39.75146],[72.69675,39.74468],[72.69939,39.74019],[72.69714,39.73831],[72.69554,39.72728],[72.69079,39.71685],[72.68126,39.70758],[72.67859,39.69711],[72.69804,39.66477],[72.71337,39.64635]]},"properties":{"@id":"way/62209855","waterway":"river","name":"Каракабак","name:ru":"Каракабак"}},{"type":"Feature","geometry":{"type":"LineString","coordinates":[[73.70142,39.91358],[73.70801,39.90109],[73.7074,39.89334],[73.71433,39.8768],[73.71212,39.86281],[73.71417,39.84178],[73.71091,39.8278],[73.72313,39.82311],[73.73452,39.81297],[73.74532,39.81426],[73.75922,39.81138],[73.76265,39.80801],[73.76221,39.80348],[73.77106,39.80037]]},"properties":{"@id":"way/75889120","waterway":"river","name":"Терек","name:ru":"Терек","name:en":"Terek"}},{"type":"Feature","geometry":{"type":"LineString","coordinates":[[73.81425,39.8677],[73.8011,39.85853],[73.79492,39.85728],[73.7914,39.85303],[73.78818,39.8447],[73.7883,39.83636],[73.79238,39.83015],[73.78847,39.82515],[73.7881,39.81988],[73.78372,39.81726],[73.77989,39.81816],[73.77754,39.81532],[73.77101,39.8038],[73.7743,39.7959],[73.76397,39.78692],[73.76476,39.7825],[73.74897,39.76188],[73.74482,39.75233],[73.74825,39.75104],[73.75057,39.74559],[73.7462,39.74175],[73.7479,39.73939],[73.74575,39.7359],[73.7524,39.73159],[73.75098,39.72788],[73.75504,39.72481],[73.75594,39.72068],[73.76024,39.7189],[73.76274,39.70456],[73.76876,39.70139],[73.76418,39.69353],[73.76625,39.68086],[73.77567,39.67277],[73.78154,39.67561],[73.79141,39.67415],[73.79715,39.67644],[73.80902,39.67209],[73.82175,39.66369]]},"properties":{"@id":"way/75889230","waterway":"river","name":"Көк-Суу","name:ru":"Коксу","name:en":"Kök-Suu"}},{"type":"Feature","geometry":{"type":"LineString","coordinates":[[73.42866,41.03975],[73.39656,41.03162],[73.38695,41.02513],[73.37141,41.02223],[73.35433,41.0042],[73.35446,40.99918],[73.34987,40.99009],[73.34372,40.98503],[73.32092,40.97519],[73.31423,40.96203],[73.3004,40.94773],[73.24943,40.94158],[73.23721,40.93938],[73.23497,40.93668],[73.22721,40.93765],[73.22322,40.93373],[73.21502,40.93356],[73.21341,40.93136],[73.21178,40.9329],[73.20546,40.92927],[73.19825,40.92968],[73.17823,40.91445],[73.1776,40.9011],[73.16789,40.88805],[73.14983,40.88498],[73.13762,40.8784],[73.12766,40.87762],[73.11981,40.87165],[73.11186,40.87271],[73.10024,40.86434],[73.09448,40.86345],[73.08414,40.86798],[73.04039,40.86839]]},"properties":{"@id":"way/126748351","waterway":"river","name":"Чаңгет","name:ky":"Чаңгет","name:ru":"Чангет"}},{"type":"Feature","geometry":{"type":"LineString","coordinates":[[73.15319,39.78296],[73.15659,39.79603],[73.16379,39.79869],[73.17306,39.80699],[73.19046,39.80894],[73.20126,39.81613],[73.20393,39.82077],[73.2268,39.82465],[73.24644,39.82198]]},"properties":{"@id":"way/127691907","waterway":"river","name":"Агачарт","name:en":"Agachart"}},{"type":"Feature","geometry":{"type":"LineString","coordinates":[[73.20149,39.87173],[73.22143,39.87196],[73.23637,39.87805],[73.25897,39.87426],[73.29822,39.85339]]},"properties":{"@id":"way/127691908","waterway":"river"}},{"type":"Feature","geometry":{"type":"LineString","coordinates":[[74.34728,39.83282],[74.35299,39.82744],[74.36531,39.82301],[74.3776,39.8255],[74.3816,39.82059],[74.41752,39.81747],[74.42508,39.823],[74.43389,39.81916],[74.43621,39.81638],[74.43312,39.81088],[74.43646,39.80699],[74.4353,39.80333],[74.44333,39.79964],[74.45166,39.78362],[74.45836,39.78009],[74.46293,39.77396],[74.47189,39.77146],[74.47996,39.77446],[74.4833,39.76889],[74.49383,39.76576],[74.49665,39.76118],[74.50686,39.75985],[74.50749,39.75431],[74.4971,39.7567],[74.49353,39.75444],[74.49321,39.74842],[74.4878,39.74323],[74.49195,39.74025],[74.48905,39.73384],[74.49775,39.72194],[74.52463,39.71267],[74.53267,39.70349],[74.53201,39.70083],[74.54094,39.6963],[74.54772,39.69592],[74.55545,39.68673],[74.56286,39.68554],[74.57882,39.68918],[74.59336,39.68184],[74.60967,39.67782],[74.61108,39.68037],[74.61362,39.67945],[74.61687,39.67532],[74.61736,39.66929],[74.62703,39.66065],[74.62965,39.65337],[74.624,39.64189],[74.62612,39.64048],[74.64221,39.6413],[74.65266,39.64657],[74.66939,39.64217],[74.70025,39.64315],[74.71811,39.65119],[74.71931,39.66005],[74.72531,39.66369],[74.7759,39.65729],[74.78342,39.66064],[74.79746,39.65927],[74.81001,39.66145]]},"properties":{"@id":"way/169089262","waterway":"river","name":"克孜勒苏河","name:ky":"Кызылсу","name:ru":"Кызылсу","name:en":"Kyzylsu"}},{"type":"Feature","geometry":{"type":"LineString","coordinates":[[74.8709,39.94179],[74.88651,39.93276],[74.88936,39.92226],[74.90313,39.91035],[74.93074,39.90455],[74.93495,39.89104],[74.94152,39.8848],[74.95038,39.88262],[74.95444,39.86844],[74.96744,39.86041],[74.98479,39.84258],[74.98489,39.81625],[74.99195,39.81024],[75.005,39.80677],[75.00895,39.80239],[75.01112,39.79386],[75.00242,39.77593],[75.00223,39.76542],[75.01898,39.74505],[75.02538,39.72883],[75.02118,39.7223],[75.01721,39.69736],[75.01771,39.69212],[75.02226,39.68745],[75.02125,39.65946],[75.03123,39.64818],[75.0407,39.6442],[75.04284,39.63914],[75.0585,39.63369],[75.07163,39.63418],[75.07429,39.62698],[75.07075,39.62358],[75.07163,39.61755],[75.08036,39.60847],[75.08232,39.59826]]},"properties":{"@id":"way/169089444","waterway":"river"}},{"type":"Feature","geometry":{"type":"LineString","coordinates":[[73.23976,40.46897],[73.23422,40.47186],[73.23398,40.47531],[73.22699,40.48283],[73.21927,40.48532],[73.21941,40.48757],[73.21447,40.48747],[73.21329,40.4907],[73.17072,40.50426],[73.16194,40.50304],[73.14847,40.50795],[73.13999,40.51671],[73.13959,40.52637],[73.13494,40.52501],[73.13759,40.53372],[73.13291,40.54615],[73.13819,40.55294],[73.1322,40.5591],[73.1345,40.56859],[73.1322,40.57409],[73.13346,40.58056],[73.11911,40.60983],[73.1187,40.62477],[73.12546,40.63224],[73.12694,40.63858],[73.12512,40.64592],[73.13102,40.66167],[73.12775,40.68878],[73.13286,40.70098],[73.13234,40.70519]]},"properties":{"@id":"way/175837815","waterway":"river","name":"Куршаб","name:ru":"Куршаб","name:en":"Kurshab River"}},{"type":"Feature","geometry":{"type":"LineString","coordinates":[[72.60919,40.35624],[72.60868,40.36709],[72.6015,40.37291],[72.59895,40.38687],[72.59315,40.39463],[72.59292,40.40046],[72.58078,40.41593],[72.58297,40.43005],[72.58074,40.43161],[72.58537,40.44194],[72.58202,40.45396],[72.56718,40.46323],[72.53832,40.49334],[72.52371,40.50308],[72.5037,40.51124],[72.49713,40.52918],[72.4797,40.5495]]},"properties":{"@id":"way/181975864","waterway":"river","name":"Араван-Сай","name:ky":"Араван-Сай","name:ru":"Аравансай","name:en":"Aravan-Say"}},{"type":"Feature","geometry":{"type":"LineString","coordinates":[[74.05581,40.46194],[74.05283,40.4665],[74.04658,40.46741],[74.04374,40.47287],[74.04644,40.47537],[74.04192,40.47693],[74.04378,40.48343],[74.03875,40.48473],[74.03477,40.49051],[74.02875,40.49331],[74.02781,40.50341],[74.02162,40.50675],[74.02245,40.5091],[74.01936,40.51223],[74.02119,40.52013],[74.01766,40.52477],[74.01609,40.53433],[74.0095,40.53811],[74.01068,40.54156],[74.00866,40.54422],[73.99549,40.54374],[73.9773,40.54838],[73.97008,40.54749],[73.9697,40.54514],[73.96391,40.54712],[73.95754,40.54376],[73.94971,40.55037],[73.92877,40.5468],[73.90955,40.5561],[73.90245,40.55416],[73.89591,40.55601],[73.8894,40.55059],[73.88364,40.55126],[73.88125,40.54773],[73.88357,40.5449],[73.87894,40.54607],[73.86074,40.5344],[73.83784,40.53252],[73.82624,40.52799],[73.818,40.53044],[73.81388,40.52805],[73.80132,40.5294],[73.78948,40.53217],[73.78217,40.53707],[73.76307,40.54033],[73.75139,40.55899],[73.74405,40.56614],[73.73096,40.56562],[73.72918,40.56822],[73.72568,40.5669],[73.72303,40.57074],[73.70995,40.56965],[73.7074,40.57335],[73.70185,40.57182],[73.69317,40.57875],[73.68212,40.57664],[73.65595,40.59093],[73.63913,40.59067],[73.61647,40.59797],[73.60376,40.59823],[73.59655,40.6024],[73.57409,40.60467],[73.5557,40.60266],[73.53922,40.60579],[73.51381,40.61361],[73.50111,40.6256],[73.48806,40.6282],[73.48223,40.63263],[73.46105,40.63309],[73.42335,40.64546]]},"properties":{"@id":"way/205336135","waterway":"river","name":"Тар","name:ky":"Тар","name:ru":"Тар","name:en":"Tar"}},{"type":"Feature","geometry":{"type":"LineString","coordinates":[[72.61522,40.74003],[72.60687,40.74135],[72.58605,40.73452],[72.57343,40.73482],[72.56167,40.73025],[72.54112,40.73208]]},"properties":{"@id":"way/211149145","waterway":"river","name":"Andijonsoy","name:ru":"Андижансай","name:en":"Andizhan-Say"}},{"type":"Feature","geometry":{"type":"LineString","coordinates":[[72.68697,41.18154],[72.68302,41.14691],[72.67854,41.13718],[72.66728,41.12399],[72.66509,41.11443],[72.65872,41.10469],[72.66215,41.09277],[72.6591,41.08615],[72.64007,41.07368],[72.62883,41.06277],[72.60352,41.05294],[72.59684,41.04574],[72.58681,41.04127]]},"properties":{"@id":"way/222120699","waterway":"river","name":"Алаш-Сай","name:ky":"Алаш-Сай","name:ru":"Алаш-Сай"}},{"type":"Feature","geometry":{"type":"LineString","coordinates":[[72.60759,41.26707],[72.60603,41.25988],[72.58169,41.25486],[72.57562,41.25069],[72.57391,41.24631],[72.57857,41.23248],[72.60003,41.20823],[72.59982,41.18621],[72.60361,41.17184],[72.60038,41.16038],[72.58318,41.1401],[72.57947,41.12726],[72.58187,41.11654],[72.5747,41.10143],[72.56553,41.10027],[72.55679,41.10356],[72.54285,41.09826],[72.52976,41.086],[72.51873,41.08128],[72.51529,41.06508],[72.52399,41.04317],[72.52246,41.03661],[72.52423,41.02912]]},"properties":{"@id":"way/222120704","waterway":"river","name":"Шаркыратма"}},{"type":"Feature","geometry":{"type":"LineString","coordinates":[[72.98235,40.87327],[72.95568,40.87003],[72.91129,40.87567],[72.89571,40.87086]]},"properties":{"@id":"way/224200809","waterway":"river","name":"Чаңгет-сай","name:ky":"Чаңгет-сай","name:ru":"Чангет-сай"}},{"type":"Feature","geometry":{"type":"LineString","coordinates":[[72.97557,40.60135],[72.97375,40.60343],[72.97406,40.61674],[72.97028,40.62469],[72.96942,40.64488],[72.95675,40.66999],[72.95688,40.67618],[72.94475,40.69405]]},"properties":{"@id":"way/229871057","waterway":"river","name":"Талдык","name:ru":"Талдык","name:en":"Taldyk"}},{"type":"Feature","geometry":{"type":"LineString","coordinates":[[72.85853,40.43384],[72.85419,40.44053],[72.85401,40.44925],[72.84573,40.46802],[72.81643,40.50501],[72.79884,40.53097],[72.79551,40.54183],[72.78062,40.55473],[72.77367,40.57012],[72.75679,40.57933],[72.75133,40.58618],[72.73468,40.59722],[72.66844,40.61967],[72.61631,40.66189],[72.61629,40.66774]]},"properties":{"@id":"way/251491604","waterway":"river","name":"Ак-Буура","name:ru":"Ак-Буура","name:en":"Ak-Buura"}},{"type":"Feature","geometry":{"type":"LineString","coordinates":[[74.7291,40.16978],[74.72529,40.16634],[74.72513,40.14575],[74.70149,40.1228],[74.69323,40.10314],[74.68646,40.09484]]},"properties":{"@id":"way/261052170","waterway":"river"}},{"type":"Feature","geometry":{"type":"LineString","coordinates":[[72.51968,40.73136],[72.50623,40.73387],[72.49548,40.74039],[72.45676,40.74344],[72.44662,40.75041],[72.42353,40.75817],[72.40596,40.77316],[72.40379,40.77803]]},"properties":{"@id":"way/282052529","waterway":"river","name":"Andijonsoy","name:ru":"Андижансай","name:en":"Andijansay"}},{"type":"Feature","geometry":{"type":"LineString","coordinates":[[73.00427,39.97939],[72.98074,39.99185],[72.96983,40.00743],[72.94278,40.02974],[72.9403,40.03624],[72.94291,40.04199],[72.94257,40.05501],[72.94718,40.06017],[72.94895,40.07169]]},"properties":{"@id":"way/291364596","waterway":"river"}},{"type":"Feature","geometry":{"type":"LineString","coordinates":[[75.03571,40.85308],[75.06936,40.8623],[75.08755,40.86334],[75.10094,40.86892],[75.11468,40.87126],[75.12669,40.87853],[75.13648,40.87918],[75.14398,40.88266],[75.16252,40.885],[75.17399,40.88955],[75.18724,40.88889],[75.19308,40.892],[75.20715,40.90731],[75.22638,40.91302],[75.23496,40.91198],[75.23983,40.91646],[75.27513,40.93014],[75.27871,40.93532],[75.30672,40.95348],[75.35625,40.95907],[75.3736,40.95187],[75.37562,40.95533],[75.38597,40.95822],[75.4105,40.97281],[75.43066,40.97967],[75.44199,40.98044],[75.47767,40.99495],[75.48011,40.99904],[75.52091,41.02221],[75.56047,41.03291],[75.5736,41.04648],[75.58876,41.05649],[75.59644,41.06843],[75.61739,41.08447],[75.62923,41.089],[75.64026,41.09899],[75.69715,41.11262],[75.70036,41.11563],[75.70366,41.11518],[75.71352,41.12404],[75.73672,41.13321],[75.7484,41.14238],[75.7517,41.14922],[75.7476,41.15476],[75.7502,41.15893],[75.7488,41.16394],[75.759,41.17156],[75.75404,41.17659],[75.75488,41.18045]]},"properties":{"@id":"way/302679329","waterway":"river","name":"Кара-Коён","name:ru":"Кара-Коён","name:en":"Kara-Koyun"}},{"type":"Feature","geometry":{"type":"LineString","coordinates":[[73.66772,40.01847],[73.66577,40.02712],[73.6502,40.02913],[73.61857,40.02295],[73.59558,40.02743],[73.57902,40.01815],[73.53824,40.01361],[73.51009,40.01472],[73.49374,40.02142]]},"properties":{"@id":"way/318332255","waterway":"river","name":"Терексу Северный","name:ru":"Терек Северный","name:en":"Northern Terek"}},{"type":"Feature","geometry":{"type":"LineString","coordinates":[[73.69239,40.76336],[73.66183,40.75219],[73.6385,40.75667],[73.606,40.78455],[73.58714,40.79201],[73.57675,40.79228],[73.55694,40.80136],[73.55035,40.80969],[73.54968,40.81543]]},"properties":{"@id":"way/362024024","waterway":"river","name":"Кара-Шоро","name:en":"Kara-Shoro"}},{"type":"Feature","geometry":{"type":"LineString","coordinates":[[72.45382,40.27525],[72.44486,40.28647],[72.43352,40.29427],[72.42501,40.30791],[72.39925,40.31686],[72.379,40.33421],[72.37364,40.3377],[72.37039,40.33695]]},"properties":{"@id":"way/362273864","waterway":"river","name":"Найман"}},{"type":"Feature","geometry":{"type":"LineString","coordinates":[[73.26595,40.28933],[73.22002,40.31374],[73.19945,40.33151],[73.18021,40.33902],[73.16864,40.34785],[73.15583,40.35104],[73.14902,40.357]]},"properties":{"@id":"way/371515252","waterway":"river","name":"Машрапсай-суу"}},{"type":"Feature","geometry":{"type":"LineString","coordinates":[[73.29822,39.85339],[73.31371,39.85],[73.32887,39.85053],[73.35657,39.86257],[73.36365,39.87171],[73.37567,39.87562],[73.40188,39.87889],[73.41999,39.89199],[73.42367,39.89752],[73.42656,39.9114],[73.46437,39.93892],[73.46398,39.94169],[73.47287,39.95217],[73.47889,39.96529],[73.49043,39.97558],[73.49229,39.98739],[73.48579,39.996],[73.49322,40.0125],[73.49379,40.0234],[73.49702,40.02605],[73.50407,40.02515],[73.53002,40.03302],[73.53468,40.03665],[73.54314,40.05111],[73.54142,40.05855],[73.53821,40.06116],[73.54131,40.07172],[73.53463,40.07796],[73.53758,40.08431],[73.53666,40.09484],[73.54351,40.10123],[73.54372,40.1042],[73.53582,40.11204],[73.52598,40.116],[73.52814,40.12339],[73.52552,40.12816]]},"properties":{"@id":"way/371523607","waterway":"river","name":"Гүлчө","name:ru":"Гульча","name:en":"Gülchö"}},{"type":"Feature","geometry":{"type":"LineString","coordinates":[[73.33299,39.97841],[73.34567,39.96679],[73.35642,39.96374],[73.36117,39.9582],[73.37516,39.95063],[73.38582,39.94874],[73.40735,39.93776],[73.42177,39.92914],[73.42539,39.92438],[73.43603,39.91987]]},"properties":{"@id":"way/371523609","waterway":"river","name":"Куртук-ата"}},{"type":"Feature","geometry":{"type":"LineString","coordinates":[[72.44877,39.81527],[72.44364,39.8143],[72.43982,39.80536],[72.43017,39.79871],[72.40352,39.79376],[72.37774,39.78348],[72.36429,39.78112],[72.34006,39.76264],[72.31892,39.75267],[72.2938,39.74965],[72.26576,39.73824],[72.25015,39.73817],[72.2366,39.74381],[72.21964,39.74609],[72.1989,39.75288]]},"properties":{"@id":"way/401507652","waterway":"river","name":"Западный Кичик-Алай","name:ru":"Западный Кичик-Алай","name:en":"Western Kichik-Alay"}},{"type":"Feature","geometry":{"type":"LineString","coordinates":[[73.21057,39.99961],[73.19988,39.99868],[73.17825,40.01815],[73.16255,40.01506],[73.14575,40.02427],[73.13074,40.02541],[73.12551,40.02163],[73.11432,40.0206],[73.09853,40.0147],[73.07989,39.99751]]},"properties":{"@id":"way/401516651","waterway":"river","name":"Чал-Куйрук","name:en":"Chal-Kuyruk"}},{"type":"Feature","geometry":{"type":"LineString","coordinates":[[73.70443,40.33334],[73.66884,40.33533],[73.65327,40.32618],[73.6241,40.31707],[73.61636,40.31974],[73.59376,40.32119],[73.55878,40.337],[73.54762,40.3387],[73.47806,40.33471],[73.46447,40.3361],[73.42964,40.32443],[73.42106,40.31713]]},"properties":{"@id":"way/403942981","waterway":"river","name":"Жошолу","name:ky":"Жошолу","name:en":"Josholu"}},{"type":"Feature","geometry":{"type":"LineString","coordinates":[[73.11415,39.753],[73.09865,39.74165],[73.08392,39.73466],[73.04747,39.73891],[73.03263,39.74789],[73.01322,39.74997],[73.00303,39.74935],[72.99631,39.74212],[72.97889,39.734],[72.96938,39.72743],[72.96438,39.71868],[72.96751,39.69858],[72.9604,39.67485],[72.96532,39.65807]]},"properties":{"@id":"way/403957071","waterway":"river","name":"Талды-суу","name:en":"Taldy-Suu"}},{"type":"Feature","geometry":{"type":"LineString","coordinates":[[73.02893,39.78986],[73.02863,39.77693],[73.0428,39.77738],[73.05507,39.77393],[73.05795,39.76292],[73.06196,39.75831],[73.05977,39.75114],[73.04639,39.73946]]},"properties":{"@id":"way/403963067","waterway":"river","name":"Кичи-Кашка Суу"}},{"type":"Feature","geometry":{"type":"LineString","coordinates":[[74.0912,40.11445],[74.11261,40.14312],[74.13411,40.16002],[74.16789,40.17373],[74.18964,40.18992],[74.21376,40.24362],[74.24506,40.25509],[74.26728,40.27143],[74.26782,40.28102],[74.25793,40.29531],[74.23139,40.31201]]},"properties":{"@id":"way/443467422","waterway":"river"}},{"type":"Feature","geometry":{"type":"LineString","coordinates":[[74.59095,40.3122],[74.55514,40.30971],[74.54845,40.30138],[74.54025,40.29646],[74.50886,40.2892],[74.49735,40.28383],[74.48239,40.28219],[74.45881,40.27401],[74.44704,40.27613],[74.43846,40.27437],[74.41727,40.2758],[74.39457,40.26477],[74.37445,40.2625]]},"properties":{"@id":"way/443467423","waterway":"river"}},{"type":"Feature","geometry":{"type":"LineString","coordinates":[[74.01416,40.92731],[73.98514,40.91136],[73.94304,40.90091],[73.9317,40.89166],[73.92314,40.89065],[73.90533,40.87706],[73.89961,40.87601],[73.89337,40.86745]]},"properties":{"@id":"way/443591164","waterway":"river"}},{"type":"Feature","geometry":{"type":"LineString","coordinates":[[73.74837,41.0776],[73.75306,41.06845],[73.75333,41.06171],[73.71933,41.04738],[73.70206,41.03474],[73.69227,41.02273],[73.67839,40.99027],[73.6683,40.97536],[73.65189,40.96273],[73.65086,40.95626],[73.63731,40.93676],[73.62712,40.93279],[73.62667,40.93012],[73.60787,40.91413],[73.60598,40.90346],[73.60086,40.89486],[73.58938,40.88328],[73.57428,40.87649],[73.57159,40.87378],[73.5724,40.87044],[73.55004,40.85547],[73.54948,40.85161],[73.52808,40.83005],[73.52263,40.82023]]},"properties":{"@id":"way/443649615","waterway":"river"}},{"type":"Feature","geometry":{"type":"LineString","coordinates":[[73.7114,41.09403],[73.7081,41.0897],[73.70806,41.0835],[73.71399,41.07567],[73.71695,41.06488],[73.71292,41.05578],[73.68079,41.04901],[73.65877,41.04015],[73.65419,41.04045],[73.65041,41.03709],[73.6412,41.0363],[73.62002,41.02192],[73.60253,41.01451],[73.57971,41.00936],[73.56192,40.99716]]},"properties":{"@id":"way/443928448","waterway":"river"}},{"type":"Feature","geometry":{"type":"LineString","coordinates":[[73.29224,39.92942],[73.30005,39.92155],[73.30065,39.91467],[73.31537,39.88923],[73.33074,39.87503],[73.34692,39.87045],[73.36636,39.87259]]},"properties":{"@id":"way/446573769","waterway":"river","name":"река Манданият"}},{"type":"Feature","geometry":{"type":"LineString","coordinates":[[74.02577,40.26103],[74.0322,40.27066],[74.04219,40.27653],[74.04697,40.28527],[74.0594,40.29149],[74.05965,40.29958],[74.06953,40.31226],[74.07115,40.31794],[74.0772,40.32302],[74.07825,40.33635],[74.08572,40.34765],[74.08814,40.35915],[74.10094,40.36467],[74.10874,40.37158],[74.11443,40.38358],[74.11462,40.39069],[74.12034,40.39398],[74.12763,40.40649]]},"properties":{"@id":"way/535282333","waterway":"river","name":"Чоң-Казык","name:ky":"Чоң-Казык","name:ru":"Чонг-Казык","name:en":"Chong-Kazyk"}},{"type":"Feature","geometry":{"type":"LineString","coordinates":[[74.28904,40.12636],[74.29419,40.13815],[74.3079,40.14367],[74.3241,40.15916],[74.33496,40.17763],[74.3456,40.18555],[74.35519,40.20905],[74.35504,40.22532],[74.34737,40.23686],[74.34762,40.24074],[74.33028,40.25826],[74.30903,40.2709],[74.30473,40.27483],[74.30381,40.28013]]},"properties":{"@id":"way/539552356","waterway":"river"}},{"type":"Feature","geometry":{"type":"LineString","coordinates":[[74.70565,40.34202],[74.71068,40.34014],[74.70922,40.32318],[74.69957,40.30468],[74.7078,40.29521],[74.71411,40.2819],[74.72676,40.27142]]},"properties":{"@id":"way/565511570","waterway":"river"}},{"type":"Feature","geometry":{"type":"LineString","coordinates":[[74.52833,40.54365],[74.51604,40.54847],[74.49078,40.55004],[74.47865,40.55621],[74.46247,40.55846],[74.44902,40.56524],[74.43025,40.56793],[74.41576,40.56651],[74.40055,40.55095],[74.38949,40.54765],[74.38035,40.54666],[74.35454,40.5514],[74.34396,40.54715]]},"properties":{"@id":"way/574362914","waterway":"river","name":"Кулун","name:en":"Kulun"}},{"type":"Feature","geometry":{"type":"LineString","coordinates":[[72.84801,39.8039],[72.84462,39.782],[72.82894,39.76649],[72.82673,39.75956],[72.83646,39.74545],[72.85015,39.74312],[72.86902,39.73391],[72.88588,39.71423],[72.88658,39.70125],[72.88279,39.69231],[72.88021,39.6738],[72.88473,39.65618]]},"properties":{"@id":"way/584455488","waterway":"river","name":"Сары-Могол","name:en":"Sary-Mogol"}},{"type":"Feature","geometry":{"type":"LineString","coordinates":[[72.33393,40.21374],[72.32984,40.21966],[72.32591,40.2161],[72.31605,40.22227],[72.30973,40.22191],[72.3002,40.22673],[72.28963,40.22771],[72.26018,40.23742]]},"properties":{"@id":"way/587463809","waterway":"river"}},{"type":"Feature","geometry":{"type":"LineString","coordinates":[[72.3573,40.24721],[72.36797,40.26291],[72.36728,40.26998],[72.36111,40.2818],[72.33826,40.30864],[72.35732,40.31659],[72.36539,40.33107]]},"properties":{"@id":"way/588354428","waterway":"river","name":"Абшир-Сай","name:ru":"Абшир-Сай","name:en":"Abshir-Say"}},{"type":"Feature","geometry":{"type":"LineString","coordinates":[[73.01699,40.38771],[72.99653,40.39207],[72.97355,40.37741],[72.94714,40.37518],[72.92236,40.36361]]},"properties":{"@id":"way/611847647","waterway":"river"}},{"type":"Feature","geometry":{"type":"LineString","coordinates":[[73.09055,41.30559],[73.0892,41.2995],[73.08312,41.29879],[73.07421,41.29062],[73.07299,41.28243],[73.06992,41.27891],[73.06268,41.27834],[73.05489,41.27009],[73.04843,41.2685],[73.04456,41.27137],[73.03973,41.27113],[73.03011,41.26049],[73.0261,41.26124],[73.0268,41.2594],[73.01642,41.25476],[73.01182,41.24905],[73.00228,41.24727],[73.00147,41.24418],[72.98688,41.24236],[72.98303,41.24552],[72.97111,41.23678],[72.95927,41.23331],[72.95895,41.22801],[72.94481,41.21948],[72.94423,41.21581],[72.93546,41.20827],[72.92031,41.18552],[72.90144,41.1704],[72.8982,41.17047],[72.88785,41.14915],[72.88337,41.14697],[72.87594,41.13697],[72.87556,41.13157],[72.84665,41.11657],[72.83617,41.11527],[72.83185,41.11068],[72.8221,41.10897],[72.77198,41.0699],[72.76661,41.068],[72.74085,41.04445]]},"properties":{"@id":"way/618944953","waterway":"river","name":"Кара-Үңкүр","name:ky":"Кара-Үңкүр","name:ru":"Кара-Ункюр"}},{"type":"Feature","geometry":{"type":"LineString","coordinates":[[74.70221,39.85056],[74.70481,39.83176],[74.70082,39.82194],[74.73195,39.80605],[74.7376,39.80022],[74.74047,39.79249],[74.72163,39.73667],[74.72749,39.73179],[74.73861,39.71482],[74.77335,39.6921],[74.78706,39.673],[74.79963,39.66623],[74.80446,39.66604],[74.80596,39.66175],[74.81001,39.66145]]},"properties":{"@id":"way/645330817","waterway":"river"}},{"type":"Feature","geometry":{"type":"LineString","coordinates":[[73.55795,39.80035],[73.56801,39.79841],[73.5899,39.8063],[73.60917,39.80773],[73.62509,39.80294],[73.62842,39.79891],[73.68283,39.78476],[73.71813,39.79933],[73.72789,39.81018],[73.73452,39.81297]]},"properties":{"@id":"way/645471377","waterway":"river","name":"Кулдама","name:ru":"Кулдама","name:en":"Kuldama"}},{"type":"Feature","geometry":{"type":"LineString","coordinates":[[74.15193,39.98087],[74.1382,39.96662],[74.12878,39.94219],[74.11829,39.93352],[74.11625,39.91922],[74.11022,39.9118],[74.10855,39.90293],[74.09271,39.88434],[74.08696,39.87568],[74.08773,39.87198]]},"properties":{"@id":"way/645768725","waterway":"river","name":"喀拉铁热克苏河","name:ru":"Тарткульсу","name:en":"Tartkulsu"}},{"type":"Feature","geometry":{"type":"LineString","coordinates":[[74.02398,40.01966],[74.04479,40.0062],[74.05117,40.00488],[74.05095,39.99519],[74.05681,39.98612],[74.0594,39.96944],[74.05556,39.95088],[74.05932,39.94486],[74.05768,39.9384],[74.05927,39.93206],[74.05092,39.92364],[74.05008,39.91775]]},"properties":{"@id":"way/645960128","waterway":"river","name":"喀拉恰勒河","name:ru":"Карачалсу","name:en":"Karachalsu"}},{"type":"Feature","geometry":{"type":"LineString","coordinates":[[73.96848,40.1107],[73.96438,40.10787],[73.95878,40.10805],[73.95174,40.09547],[73.94258,40.09064],[73.93144,40.07448],[73.92067,40.06708],[73.91434,40.059],[73.90188,40.05151],[73.89243,40.03832],[73.8721,39.99651]]},"properties":{"@id":"way/645960143","waterway":"river","name":"Ойбала","name:ru":"Ойбала","name:en":"Oybala"}},{"type":"Feature","geometry":{"type":"LineString","coordinates":[[74.30008,40.0235],[74.30903,40.01708],[74.31287,39.99605],[74.29987,39.96348],[74.28069,39.95149],[74.27991,39.94282],[74.28247,39.93933],[74.28217,39.92576],[74.28553,39.91064],[74.29015,39.90478],[74.30422,39.89883],[74.31796,39.87835],[74.33467,39.86859],[74.34939,39.8558],[74.34424,39.84935],[74.34803,39.83884]]},"properties":{"@id":"way/645978733","waterway":"river","name":"萨瓦亚尔顿河","name:ru":"Арыкторыксу","name:en":"Aryktorysu"}},{"type":"Feature","geometry":{"type":"LineString","coordinates":[[73.87307,40.1431],[73.86766,40.12648],[73.85613,40.10843],[73.85105,40.08625],[73.84562,40.07912],[73.84702,40.05459],[73.84459,40.04677],[73.84593,40.03569],[73.85111,40.02884],[73.85198,40.0219],[73.85932,40.01547],[73.86398,40.00487],[73.87218,39.99635],[73.87348,39.98946],[73.86904,39.97484],[73.87127,39.97336],[73.86651,39.96561],[73.85805,39.95872],[73.85344,39.94953],[73.83815,39.9402],[73.82718,39.92848],[73.81701,39.90215],[73.81875,39.89486],[73.81474,39.88839],[73.81664,39.8839],[73.81464,39.88011],[73.81784,39.87199],[73.81425,39.8677]]},"properties":{"@id":"way/646032964","waterway":"river","name":"Көк-Суу","name:ky":"Көк-Суу","name:ru":"Коксу","name:en":"Kök-Suu"}},{"type":"Feature","geometry":{"type":"LineString","coordinates":[[72.60273,39.9897],[72.60349,39.99636],[72.5964,40.01273],[72.58403,40.03208],[72.58894,40.04354],[72.59971,40.0493],[72.60323,40.05986],[72.60702,40.06311]]},"properties":{"@id":"way/661388129","waterway":"river","name":"Кара-Кой","name:en":"Kara-Koy"}},{"type":"Feature","geometry":{"type":"LineString","coordinates":[[72.42475,39.89993],[72.42333,39.90258],[72.41509,39.90094],[72.41095,39.90463],[72.41034,39.91108],[72.40503,39.91617],[72.39586,39.93669],[72.38456,39.9515],[72.38181,39.95865],[72.38379,39.97359],[72.38051,39.98624],[72.38381,39.99881],[72.38997,40.00588],[72.41779,40.01464],[72.43731,40.02466],[72.45485,40.05105]]},"properties":{"@id":"way/661398452","waterway":"river","name":"Гезарт","name:en":"Gezart"}},{"type":"Feature","geometry":{"type":"LineString","coordinates":[[72.33311,39.88446],[72.33331,39.88732],[72.32879,39.88979],[72.32889,39.89609],[72.31846,39.91584],[72.30543,39.92602],[72.28075,39.92455],[72.26471,39.92028],[72.25383,39.92786],[72.24882,39.92776],[72.23411,39.92392],[72.21946,39.91603],[72.20377,39.91749],[72.18744,39.91466],[72.18183,39.91965],[72.17535,39.92139],[72.17583,39.92339],[72.16569,39.93155],[72.15694,39.93371],[72.15173,39.93258],[72.1474,39.92672],[72.13821,39.92368],[72.11667,39.92373]]},"properties":{"@id":"way/665153650","waterway":"river","name":"Тегермеч","name:ru":"Тегермеч","name:en":"Tegermech"}},{"type":"Feature","geometry":{"type":"LineString","coordinates":[[73.12914,39.85625],[73.13661,39.86467],[73.13096,39.86822],[73.12851,39.88096],[73.11967,39.89315],[73.08533,39.90948],[73.07777,39.90947]]},"properties":{"@id":"way/783741921","waterway":"river","name":"Аршан-Ата","name:en":"Arshan-Ata"}},{"type":"Feature","geometry":{"type":"LineString","coordinates":[[73.07777,39.90947],[73.0733,39.91949],[73.06252,39.92601],[73.05906,39.93454],[73.04252,39.94648],[73.0373,39.9534],[73.0161,39.95643]]},"properties":{"@id":"way/783741922","waterway":"river","name":"Сары-Гой","name:ky":"Сары-Гой","name:en":"Sary-Goy"}},{"type":"Feature","geometry":{"type":"LineString","coordinates":[[73.04727,39.80046],[73.05683,39.80928],[73.06997,39.81441],[73.07861,39.81471],[73.08583,39.81175],[73.09789,39.79456],[73.10172,39.77555],[73.09057,39.74333],[73.08584,39.73975],[73.08449,39.73498]]},"properties":{"@id":"way/783752730","waterway":"river","name":"Чонг-Кашка Суу"}},{"type":"Feature","geometry":{"type":"LineString","coordinates":[[73.01787,39.80754],[73.01438,39.81099],[73.00899,39.80896],[73.00565,39.80527],[73.0063,39.79888],[72.98195,39.79167],[72.9773,39.78703],[72.97887,39.77953],[72.98717,39.77352],[72.98878,39.76755],[72.99286,39.76427],[72.99549,39.74204]]},"properties":{"@id":"way/784004948","waterway":"river","name":"Калта-Боз"}},{"type":"Feature","geometry":{"type":"LineString","coordinates":[[73.32564,40.10635],[73.33761,40.11699],[73.34385,40.11852],[73.35181,40.13033],[73.35975,40.13565],[73.36538,40.14743],[73.36619,40.1556],[73.38479,40.17051],[73.3853,40.17753],[73.39295,40.18766],[73.39331,40.19322],[73.40449,40.20041],[73.40857,40.21029],[73.40758,40.22588],[73.40977,40.23223],[73.40363,40.24454],[73.40907,40.2541],[73.41678,40.25652],[73.41733,40.26021],[73.42656,40.27067],[73.43812,40.30736]]},"properties":{"@id":"way/839004733","waterway":"river","name":"Жылы-Суу","name:ru":"Джейлы-Суу","name:en":"Jyly-Suu"}},{"type":"Feature","geometry":{"type":"LineString","coordinates":[[72.3536,40.09743],[72.36251,40.10339],[72.36075,40.12783],[72.3646,40.13309],[72.36151,40.13955],[72.36485,40.15107],[72.36174,40.17117]]},"properties":{"@id":"way/940358398","waterway":"river","name":"Абшир-Сай","name:ru":"Абшир-Сай","name:en":"Abshir-Say"}},{"type":"Feature","geometry":{"type":"LineString","coordinates":[[72.36174,40.17117],[72.36408,40.17501],[72.36164,40.17959],[72.36695,40.18641],[72.36724,40.19499],[72.35595,40.2245],[72.35023,40.2326],[72.35255,40.2359],[72.35121,40.23887],[72.35881,40.24573]]},"properties":{"@id":"way/1020090428","waterway":"river","name":"Абшир-Сай","name:ru":"Абшир-Сай","name:en":"Abshir-Say"}},{"type":"Feature","geometry":{"type":"LineString","coordinates":[[73.03387,39.8702],[73.03637,39.88203],[73.02838,39.89265],[73.01416,39.90121],[73.00564,39.92428],[73.01274,39.93994],[73.01286,39.95248],[73.0161,39.95643],[73.00427,39.97939]]},"properties":{"@id":"way/1042617765","waterway":"river","name":"Кальта-боз","name:ky":"Калта-боз","name:ru":"Кальта-боз","name:en":"Kalta-Boz"}},{"type":"Feature","geometry":{"type":"LineString","coordinates":[[72.51004,39.92627],[72.50392,39.9304],[72.5063,39.93511],[72.50349,39.94831],[72.50491,39.958],[72.49863,39.9703],[72.4969,39.98704],[72.49258,39.99043],[72.49323,39.99396],[72.46274,40.01242],[72.45711,40.01997]]},"properties":{"@id":"way/1053352093","waterway":"river","name":"Акарт","name:en":"Akart"}},{"type":"Feature","geometry":{"type":"LineString","coordinates":[[72.51432,39.8031],[72.50756,39.81089],[72.50668,39.81776],[72.49478,39.82159],[72.46145,39.82209],[72.45184,39.81888],[72.44877,39.81527]]},"properties":{"@id":"way/1071018409","waterway":"river","name":"Кара-Сель","name:en":"Kara-Sel"}},{"type":"Feature","geometry":{"type":"LineString","coordinates":[[73.21439,39.9399],[73.20264,39.94348],[73.19528,39.95371],[73.17769,39.96676],[73.14474,39.97162]]},"properties":{"@id":"way/1075345187","waterway":"river","name":"Кантышка-Су","name:en":"Kantyshka-Suu"}},{"type":"Feature","geometry":{"type":"LineString","coordinates":[[74.34815,40.7269],[74.36491,40.73619],[74.37306,40.74596],[74.39823,40.74493],[74.4177,40.75213],[74.42911,40.77157],[74.4442,40.77666],[74.44851,40.79094],[74.44697,40.80231],[74.44379,40.80829],[74.43053,40.81495]]},"properties":{"@id":"way/1077161689","waterway":"river","name":"Кичи-Коман","name:en":"Kichi-Koman"}},{"type":"Feature","geometry":{"type":"LineString","coordinates":[[74.5202,40.6572],[74.54915,40.65282],[74.56691,40.66334],[74.59343,40.66514],[74.6045,40.66873]]},"properties":{"@id":"way/1077195347","waterway":"river"}},{"type":"Feature","geometry":{"type":"LineString","coordinates":[[74.9667,40.78813],[74.95314,40.78852],[74.94782,40.7919],[74.9025,40.79307],[74.86541,40.78527],[74.85305,40.77461],[74.83691,40.76998],[74.83298,40.76486],[74.81143,40.76334],[74.79825,40.76845],[74.79208,40.77652],[74.78478,40.78064],[74.76769,40.78762],[74.74118,40.79342],[74.72464,40.78839],[74.69972,40.78705],[74.68562,40.79085],[74.67658,40.78891],[74.66662,40.79254],[74.645,40.78911],[74.61032,40.79852],[74.59368,40.80967]]},"properties":{"@id":"way/1077195352","waterway":"river","name":"Джаманты","name:en":"Jamanty"}},{"type":"Feature","geometry":{"type":"LineString","coordinates":[[74.47074,40.6712],[74.47628,40.67296],[74.48194,40.68594],[74.48825,40.68975],[74.48894,40.70485],[74.49649,40.7122],[74.51031,40.71949],[74.50842,40.74914]]},"properties":{"@id":"way/1077195358","waterway":"river","name":"Итыльген"}},{"type":"Feature","geometry":{"type":"LineString","coordinates":[[74.2073,40.72313],[74.21054,40.71552],[74.21376,40.71428],[74.21698,40.70143],[74.2199,40.69837],[74.21775,40.69362],[74.21908,40.68497],[74.20612,40.65388],[74.20162,40.65078]]},"properties":{"@id":"way/1077666609","waterway":"river","name":"Сурташ"}},{"type":"Feature","geometry":{"type":"LineString","coordinates":[[74.33684,40.69196],[74.32858,40.68982],[74.32212,40.68419],[74.31948,40.67211],[74.31431,40.66733],[74.30045,40.66488],[74.2838,40.65027],[74.27014,40.64864]]},"properties":{"@id":"way/1077682819","waterway":"river","name":"Чонг-Уч-Сеид"}},{"type":"Feature","geometry":{"type":"LineString","coordinates":[[74.27335,40.75116],[74.2682,40.74734],[74.25818,40.72788],[74.25771,40.71786],[74.25376,40.71373],[74.2535,40.70846],[74.25724,40.70042],[74.27221,40.68637],[74.27127,40.67533],[74.27903,40.67234],[74.28243,40.66794],[74.28024,40.65958],[74.2695,40.65318]]},"properties":{"@id":"way/1077682829","waterway":"river","name":"Биринчи-Учсеид"}},{"type":"Feature","geometry":{"type":"LineString","coordinates":[[74.58138,40.45511],[74.56498,40.45802],[74.54786,40.45678],[74.5361,40.45965],[74.50495,40.48652]]},"properties":{"@id":"way/1079224022","waterway":"river","name":"Тюсджайлау"}},{"type":"Feature","geometry":{"type":"LineString","coordinates":[[73.78336,40.10127],[73.79813,40.06855],[73.80293,40.04353],[73.80789,40.03621],[73.80689,40.02483],[73.8114,40.00919],[73.81633,39.99873],[73.82838,39.99206],[73.83535,39.984],[73.83671,39.97126],[73.84296,39.96562],[73.85066,39.94892]]},"properties":{"@id":"way/1101706400","waterway":"river","name":"Бельаули","name:ru":"Бельаули"}},{"type":"Feature","geometry":{"type":"LineString","coordinates":[[73.21593,40.82035],[73.20389,40.8157],[73.19369,40.8152],[73.19423,40.80845],[73.18254,40.8102],[73.17212,40.80621],[73.15826,40.79744],[73.14206,40.78229]]},"properties":{"@id":"way/1147980414","waterway":"river","name":"Yassi","name:en":"Yassu"}},{"type":"Feature","geometry":{"type":"LineString","coordinates":[[73.19507,40.76421],[73.19208,40.76086],[73.18611,40.76151],[73.18598,40.75578],[73.18399,40.75539],[73.17582,40.75912],[73.17539,40.76537],[73.17016,40.76466],[73.16519,40.77553],[73.15643,40.77878],[73.14963,40.77807],[73.14699,40.7817],[73.14206,40.78229],[73.07587,40.76941],[73.06348,40.77064]]},"properties":{"@id":"way/1147980415","waterway":"river","name":"Qoradaryo","name:ky":"Кара-Дарыя","name:ru":"Карадарья"}},{"type":"Feature","geometry":{"type":"LineString","coordinates":[[72.4797,40.5495],[72.45345,40.56981],[72.43057,40.60186],[72.41546,40.60951],[72.41288,40.61639],[72.4049,40.61784]]},"properties":{"@id":"way/1149579473","waterway":"river","name":"Араван-Сай","name:ky":"Араван-Сай","name:ru":"Аравансай","name:en":"Aravan-Say"}},{"type":"Feature","geometry":{"type":"LineString","coordinates":[[74.32719,40.12586],[74.34412,40.14838],[74.35766,40.15934],[74.35833,40.16322],[74.36696,40.16744],[74.37068,40.17923],[74.36696,40.19008],[74.36723,40.20553],[74.36017,40.214],[74.35512,40.21618]]},"properties":{"@id":"way/1150675974","waterway":"river"}},{"type":"Feature","geometry":{"type":"LineString","coordinates":[[74.26118,40.17161],[74.26687,40.18294],[74.27058,40.20597],[74.27835,40.22512],[74.27764,40.25164],[74.27296,40.25798],[74.26792,40.27436]]},"properties":{"@id":"way/1150675975","waterway":"river"}},{"type":"Feature","geometry":{"type":"LineString","coordinates":[[72.55822,40.95271],[72.50278,40.93613],[72.49469,40.93836],[72.48719,40.93726],[72.45803,40.94499],[72.44204,40.93571],[72.43709,40.93791],[72.43107,40.9357],[72.41013,40.92151],[72.40847,40.91682],[72.39803,40.91245],[72.37466,40.91075],[72.36389,40.91257],[72.33995,40.90379]]},"properties":{"@id":"way/1151053146","waterway":"river","name":"Кара-Ункюр"}},{"type":"Feature","geometry":{"type":"LineString","coordinates":[[72.74085,41.04445],[72.73348,41.03578],[72.70051,41.02043],[72.67222,40.99736],[72.66662,40.99662],[72.6283,40.96898],[72.55822,40.95271]]},"properties":{"@id":"way/1151053147","waterway":"river","name":"Кара-Ункюр"}},{"type":"Feature","geometry":{"type":"LineString","coordinates":[[72.97238,40.12894],[72.97088,40.1367],[72.97479,40.13901],[72.97354,40.14298],[72.98289,40.1528],[72.98535,40.16119],[72.98191,40.17014],[72.96591,40.18723],[72.97124,40.20343],[72.9698,40.20686],[72.97302,40.22498]]},"properties":{"@id":"way/1151662710","waterway":"river","name":"Ак-Буура","name:ru":"Ак-Буура","name:en":"Ak-Buura"}},{"type":"Feature","geometry":{"type":"LineString","coordinates":[[73.43812,40.30736],[73.41603,40.31989],[73.40582,40.32909],[73.40637,40.33272],[73.40005,40.34182],[73.40153,40.35043],[73.39617,40.36216],[73.40158,40.38065],[73.39586,40.38518],[73.39196,40.39642],[73.38595,40.39966],[73.38243,40.40856],[73.37714,40.41068],[73.37116,40.41837],[73.36648,40.42008],[73.3545,40.41848],[73.34462,40.41318],[73.32004,40.41487],[73.30341,40.41266],[73.29785,40.41798],[73.28914,40.41975],[73.27241,40.42949],[73.2564,40.44513],[73.2527,40.44388],[73.23976,40.46897]]},"properties":{"@id":"way/1151681878","waterway":"river","name":"Куршаб","name:ru":"Куршаб","name:en":"Kurshab River"}},{"type":"Feature","geometry":{"type":"LineString","coordinates":[[74.3315,40.9396],[74.32138,40.95453],[74.32003,40.97204],[74.31526,40.98161],[74.31045,40.98161],[74.29182,40.9917],[74.2891,40.99037],[74.28321,40.99292]]},"properties":{"@id":"way/1152556823","waterway":"river","name":"Арпа","name:en":"Arpa"}},{"type":"Feature","geometry":{"type":"LineString","coordinates":[[74.08773,39.87198],[74.09111,39.8666],[74.09661,39.86389],[74.0997,39.85466],[74.09782,39.84528],[74.09034,39.83441],[74.09224,39.82703],[74.0983,39.81871],[74.11074,39.8117],[74.12419,39.80932],[74.12314,39.80465],[74.12591,39.80026],[74.13315,39.79755],[74.13407,39.79154],[74.14652,39.78867],[74.17085,39.77119]]},"properties":{"@id":"way/1182622456","waterway":"river","name":"吉根河","name:ru":"Карачалсу","name:en":"Karachalsu"}},{"type":"Feature","geometry":{"type":"LineString","coordinates":[[74.43555,40.11729],[74.42625,40.11743],[74.42132,40.1149],[74.41267,40.10487],[74.39615,40.0968],[74.38913,40.08972],[74.35802,40.07202],[74.34997,40.06434],[74.33888,40.06058],[74.3233,40.05051],[74.30206,40.03199],[74.30008,40.0235]]},"properties":{"@id":"way/1182624967","waterway":"river","name":"阿热克托如克河","name:ru":"Арыкторыксу","name:en":"Aryktorysu"}},{"type":"Feature","geometry":{"type":"LineString","coordinates":[[73.41718,39.78731],[73.41385,39.77914],[73.41524,39.77575],[73.40895,39.7673],[73.40885,39.76129],[73.40091,39.75787],[73.3973,39.75263],[73.38599,39.74995],[73.37551,39.7427],[73.35288,39.74324],[73.33863,39.73823],[73.32799,39.73248],[73.30939,39.71641]]},"properties":{"@id":"way/1228111290","waterway":"river","name":"Калмак-Суу","name:ru":"Калмак-Суу","name:en":"Kalmak-Suu"}},{"type":"Feature","geometry":{"type":"LineString","coordinates":[[73.86973,40.25645],[73.88094,40.25876],[73.89333,40.26872],[73.91975,40.27131],[73.94309,40.26711],[73.96462,40.25628],[73.99102,40.25889],[74.00081,40.25669],[74.02577,40.26103]]},"properties":{"@id":"way/1233613798","waterway":"river","name":"Алдакул","name:ru":"Алдакул","name:en":"Aldakul"}},{"type":"Feature","geometry":{"type":"LineString","coordinates":[[73.5994,40.17157],[73.59491,40.17275],[73.5914,40.16986],[73.58074,40.16914],[73.5748,40.16178],[73.57546,40.15806],[73.56299,40.14641],[73.54295,40.14066],[73.52764,40.12849]]},"properties":{"@id":"way/1233640491","waterway":"river","name":"Чоң-Бүлөлү","name:ky":"Чоң-Бүлөлү","name:ru":"Чон-Бюлелю","name:en":"Chong-Bülölü"}},{"type":"Feature","geometry":{"type":"LineString","coordinates":[[73.77146,40.19447],[73.75496,40.19523],[73.73704,40.19023],[73.71413,40.17381],[73.69977,40.17054]]},"properties":{"@id":"way/1234219552","waterway":"river","name":"Эркеч","name:ky":"Эркеч","name:en":"Erkech"}},{"type":"Feature","geometry":{"type":"LineString","coordinates":[[73.92527,41.03341],[73.94077,41.03494],[73.95289,41.03161],[73.96169,41.04149],[73.99306,41.05547],[74.03102,41.05611]]},"properties":{"@id":"way/1234649437","waterway":"river","name":"Кок-Суу","name:ky":"Кок-Суу","name:en":"Kok-Suu"}},{"type":"Feature","geometry":{"type":"LineString","coordinates":[[73.80891,40.27999],[73.78264,40.295],[73.76178,40.31981],[73.73078,40.33443],[73.71617,40.33103],[73.70443,40.33334]]},"properties":{"@id":"way/1324854470","waterway":"river","name":"Ай-Тапан","name:ky":"Ай-Тапан","name:en":"Ay-Tapan"}},{"type":"Feature","geometry":{"type":"LineString","coordinates":[[73.82732,40.34],[73.83895,40.34954],[73.86597,40.35828],[73.88839,40.37311],[73.94303,40.38653],[73.95927,40.39377],[73.97222,40.40348],[73.97728,40.4043],[73.98367,40.41084],[73.99934,40.41799],[74.01242,40.41861],[74.04628,40.42649],[74.04826,40.43223],[74.05738,40.43396],[74.0652,40.43868]]},"properties":{"@id":"way/1332468311","waterway":"river","name":"Ак-богус","name:ru":"Ак-богус","name:en":"Ak-Bogus"}},{"type":"Feature","geometry":{"type":"LineString","coordinates":[[73.14111,40.24227],[73.1378,40.25],[73.12858,40.25835],[73.12784,40.2632],[73.11115,40.2668],[73.10407,40.27446],[73.09558,40.27832],[73.09092,40.29097],[73.08458,40.29871],[73.07236,40.305],[73.04773,40.30143]]},"properties":{"@id":"way/1336642470","waterway":"river","name":"Кырк-Кечүү","name:ky":"Кырк-Кечүү","name:en":"Kyrk-Kechuu"}},{"type":"Feature","geometry":{"type":"LineString","coordinates":[[73.23706,40.09091],[73.23017,40.10456],[73.23108,40.11232],[73.22316,40.13158],[73.22625,40.13551],[73.22617,40.14061],[73.20957,40.15046],[73.19421,40.1667],[73.1911,40.18639],[73.18774,40.19015],[73.17619,40.19341],[73.17113,40.2041],[73.16537,40.20793],[73.16593,40.21122],[73.14883,40.22804],[73.14111,40.24227]]},"properties":{"@id":"way/1336649081","waterway":"river","name":"Кырк-Кечүү","name:ky":"Кырк-Кечүү","name:en":"Kyrk Kechuu"}},{"type":"Feature","geometry":{"type":"LineString","coordinates":[[73.12102,40.09332],[73.09944,40.09641],[73.09015,40.09385],[73.07578,40.0825],[73.07133,40.08169],[73.06762,40.08303],[73.06607,40.08859],[73.06206,40.09171],[73.05146,40.09473],[73.04506,40.09517],[73.03979,40.09069],[73.03625,40.09195],[73.02613,40.08914],[72.99769,40.09568],[72.98231,40.08997],[72.96991,40.0904],[72.95953,40.09461],[72.95609,40.09969]]},"properties":{"@id":"way/1336892293","waterway":"river","name":"Кайынгды","name:ky":"Кайынгды","name:en":"Kayyngdy"}},{"type":"Feature","geometry":{"type":"LineString","coordinates":[[73.31043,40.15287],[73.30265,40.15778],[73.30385,40.16588],[73.29347,40.19049],[73.29348,40.1943],[73.30102,40.2044],[73.30501,40.22131],[73.3012,40.2292],[73.28892,40.24062],[73.28761,40.25605],[73.28199,40.26582]]},"properties":{"@id":"way/1337245573","waterway":"river","name":"Талдык","name:ky":"Талдык","name:en":"Taldyk"}},{"type":"Feature","geometry":{"type":"LineString","coordinates":[[74.16219,40.33514],[74.16117,40.3376],[74.16574,40.34392],[74.15938,40.35385],[74.15839,40.36136],[74.16946,40.37691],[74.16759,40.38836],[74.14633,40.40193],[74.127,40.40674],[74.1255,40.41919],[74.0943,40.43771],[74.09043,40.43925],[74.07363,40.43529],[74.06694,40.4372],[74.06392,40.44706],[74.0585,40.44989],[74.05558,40.45524],[74.05581,40.46194]]},"properties":{"@id":"way/1362342579","waterway":"river","name":"Тар","name:ky":"Тар","name:ru":"Тар","name:en":"Tar"}},{"type":"Feature","geometry":{"type":"LineString","coordinates":[[72.51968,40.73136],[72.50832,40.73143],[72.4847,40.7393],[72.4665,40.73578],[72.44978,40.7251],[72.41889,40.72477],[72.40965,40.71994],[72.37515,40.71647]]},"properties":{"@id":"way/1364062606","waterway":"river"}},{"type":"Feature","geometry":{"type":"LineString","coordinates":[[72.67698,40.20009],[72.67661,40.20482],[72.66354,40.21471],[72.65569,40.22871],[72.6542,40.239],[72.63205,40.26999],[72.62936,40.29186],[72.6314,40.30303]]},"properties":{"@id":"way/1466678902","waterway":"river","name":"Кыргыз-Ата","name:ru":"Кыргыз-Ата","name:en":"Kyrgyz-Ata"}}]}