{
  "type": "FeatureCollection",
  "generator": "overpass-turbo",
  "copyright": "The data included in this document is from www.openstreetmap.org. The data is made available under ODbL.",
  "timestamp": "2026-05-30T20:23:19Z",
  "features": [
    {
      "type": "Feature",
      "properties": {
        "@id": "way/275504503",
        "name": "Дардан-Көл",
        "name:en": "Dardan-Köl",
        "natural": "water",
        "source": "mapbox",
        "water": "lake"
      },
      "geometry": {
        "type": "Polygon",
        "coordinates": [
          [
            [
              73.8737219,
              40.3424014
            ],
            [
              73.8736922,
              40.3423801
            ],
            [
              73.8735665,
              40.3422123
            ],
            [
              73.8734922,
              40.3420565
            ],
            [
              73.8734555,
              40.3418602
            ],
            [
              73.8734372,
              40.3418422
            ],
            [
              73.8734215,
              40.3418216
            ],
            [
              73.873432,
              40.341763
            ],
            [
              73.8734084,
              40.3417337
            ],
            [
              73.8732992,
              40.3416991
            ],
            [
              73.8732267,
              40.3416305
            ],
            [
              73.8732119,
              40.3415899
            ],
            [
              73.8732276,
              40.341526
            ],
            [
              73.8732215,
              40.341325
            ],
            [
              73.8731892,
              40.3412771
            ],
            [
              73.873121,
              40.3410394
            ],
            [
              73.8730966,
              40.340839
            ],
            [
              73.8730957,
              40.3407219
            ],
            [
              73.8730695,
              40.3404962
            ],
            [
              73.8731237,
              40.3402919
            ],
            [
              73.8731298,
              40.3401188
            ],
            [
              73.8731586,
              40.3400056
            ],
            [
              73.8732058,
              40.3397813
            ],
            [
              73.8732311,
              40.3397267
            ],
            [
              73.8732643,
              40.339515
            ],
            [
              73.8732521,
              40.3393792
            ],
            [
              73.8732503,
              40.3390543
            ],
            [
              73.8732695,
              40.3390224
            ],
            [
              73.8732774,
              40.3389492
            ],
            [
              73.873335,
              40.3388407
            ],
            [
              73.87339,
              40.3387608
            ],
            [
              73.8735149,
              40.3386782
            ],
            [
              73.8736608,
              40.3386216
            ],
            [
              73.8737979,
              40.3386456
            ],
            [
              73.8740442,
              40.3386509
            ],
            [
              73.87419,
              40.338581
            ],
            [
              73.8742477,
              40.3385711
            ],
            [
              73.8743857,
              40.3385165
            ],
            [
              73.8744634,
              40.3385351
            ],
            [
              73.8745149,
              40.338607
            ],
            [
              73.8745857,
              40.338631
            ],
            [
              73.8746547,
              40.3387315
            ],
            [
              73.8746573,
              40.3387728
            ],
            [
              73.8745988,
              40.3388666
            ],
            [
              73.8746023,
              40.3389478
            ],
            [
              73.874549,
              40.3390683
            ],
            [
              73.8743813,
              40.3392108
            ],
            [
              73.8743673,
              40.33929
            ],
            [
              73.8744057,
              40.3394158
            ],
            [
              73.8744791,
              40.3395157
            ],
            [
              73.8744389,
              40.3395789
            ],
            [
              73.8743472,
              40.3396395
            ],
            [
              73.8743437,
              40.3396828
            ],
            [
              73.874363,
              40.339724
            ],
            [
              73.8743411,
              40.3398166
            ],
            [
              73.8743298,
              40.3398818
            ],
            [
              73.8743673,
              40.3399537
            ],
            [
              73.8744311,
              40.339993
            ],
            [
              73.8744267,
              40.3401214
            ],
            [
              73.8744424,
              40.3402106
            ],
            [
              73.874514,
              40.3402892
            ],
            [
              73.874597,
              40.3403365
            ],
            [
              73.8746817,
              40.3403564
            ],
            [
              73.874687,
              40.3403924
            ],
            [
              73.8747114,
              40.3404283
            ],
            [
              73.8747717,
              40.3404563
            ],
            [
              73.8748485,
              40.3404543
            ],
            [
              73.8749001,
              40.3404742
            ],
            [
              73.8750197,
              40.3404656
            ],
            [
              73.8750415,
              40.3404836
            ],
            [
              73.8750407,
              40.3405322
            ],
            [
              73.875018,
              40.3406127
            ],
            [
              73.874914,
              40.3407032
            ],
            [
              73.8748241,
              40.3407811
            ],
            [
              73.8747743,
              40.3407998
            ],
            [
              73.874618,
              40.3409455
            ],
            [
              73.8745568,
              40.3409662
            ],
            [
              73.8744616,
              40.3410454
            ],
            [
              73.8744215,
              40.3411719
            ],
            [
              73.8744066,
              40.3413323
            ],
            [
              73.8743638,
              40.3413889
            ],
            [
              73.874266,
              40.3415566
            ],
            [
              73.8741516,
              40.3417623
            ],
            [
              73.8739665,
              40.3419381
            ],
            [
              73.8738931,
              40.3420705
            ],
            [
              73.8738398,
              40.3422602
            ],
            [
              73.8737927,
              40.3423468
            ],
            [
              73.8737822,
              40.3423754
            ],
            [
              73.8737586,
              40.342396
            ],
            [
              73.8737219,
              40.3424014
            ]
          ]
        ]
      },
      "id": "way/275504503"
    },
    {
      "type": "Feature",
      "properties": {
        "@id": "way/275504504",
        "natural": "water",
        "source": "mapbox",
        "water": "lake"
      },
      "geometry": {
        "type": "Polygon",
        "coordinates": [
          [
            [
              73.8733018,
              40.3467673
            ],
            [
              73.8732852,
              40.3466714
            ],
            [
              73.8733062,
              40.3465782
            ],
            [
              73.8733525,
              40.3464764
            ],
            [
              73.873459,
              40.3463619
            ],
            [
              73.8735114,
              40.3462894
            ],
            [
              73.8735656,
              40.3460497
            ],
            [
              73.8736145,
              40.3458973
            ],
            [
              73.873701,
              40.3458134
            ],
            [
              73.8738782,
              40.3457016
            ],
            [
              73.8740704,
              40.3456896
            ],
            [
              73.8742704,
              40.3456617
            ],
            [
              73.8744913,
              40.3455119
            ],
            [
              73.8748022,
              40.3453954
            ],
            [
              73.8751236,
              40.3453502
            ],
            [
              73.8752808,
              40.3453808
            ],
            [
              73.8753481,
              40.3454181
            ],
            [
              73.8754049,
              40.3454933
            ],
            [
              73.8754677,
              40.3455186
            ],
            [
              73.8755297,
              40.3455652
            ],
            [
              73.8756057,
              40.3455944
            ],
            [
              73.8756852,
              40.3456603
            ],
            [
              73.8757027,
              40.3457209
            ],
            [
              73.8757332,
              40.3457569
            ],
            [
              73.8757324,
              40.3458926
            ],
            [
              73.8756861,
              40.3459605
            ],
            [
              73.8756319,
              40.3460524
            ],
            [
              73.8755193,
              40.3461609
            ],
            [
              73.875356,
              40.3462694
            ],
            [
              73.8751385,
              40.3464358
            ],
            [
              73.8750127,
              40.346511
            ],
            [
              73.8747551,
              40.3466355
            ],
            [
              73.8746127,
              40.34673
            ],
            [
              73.8745228,
              40.3467806
            ],
            [
              73.8743315,
              40.3468019
            ],
            [
              73.8740931,
              40.3468072
            ],
            [
              73.8737586,
              40.3468531
            ],
            [
              73.8735761,
              40.3468511
            ],
            [
              73.8734608,
              40.3468345
            ],
            [
              73.8733813,
              40.3468318
            ],
            [
              73.8733455,
              40.3468172
            ],
            [
              73.8733018,
              40.3467673
            ]
          ]
        ]
      },
      "id": "way/275504504"
    },
    {
      "type": "Feature",
      "properties": {
        "@id": "way/574360411",
        "alt_name": "Чоң Кулун-Ата көлү",
        "alt_name2": "Чоң көлү",
        "alt_name3": "Башкы-Көл",
        "ele": "2856",
        "intermittent": "no",
        "name": "Кулун-Ата көлү",
        "name:en": "Kulun-Ata Köl",
        "name:ky": "Кулун-Ата көлү",
        "natural": "water",
        "water": "lake",
        "wikidata": "Q4246465",
        "wikipedia": "ky:Кулун көлү"
      },
      "geometry": {
        "type": "Polygon",
        "coordinates": [
          [
            [
              74.296283,
              40.5470551
            ],
            [
              74.296204,
              40.546485
            ],
            [
              74.2958881,
              40.5459748
            ],
            [
              74.2956511,
              40.5458548
            ],
            [
              74.2953945,
              40.5454797
            ],
            [
              74.2954537,
              40.5445044
            ],
            [
              74.295276,
              40.5442944
            ],
            [
              74.2950785,
              40.5443094
            ],
            [
              74.2947626,
              40.5438442
            ],
            [
              74.2948811,
              40.5435892
            ],
            [
              74.2947231,
              40.5432141
            ],
            [
              74.2942887,
              40.543064
            ],
            [
              74.294269,
              40.542929
            ],
            [
              74.294427,
              40.5427339
            ],
            [
              74.2943282,
              40.5423288
            ],
            [
              74.2932817,
              40.5416536
            ],
            [
              74.2933607,
              40.5413535
            ],
            [
              74.2929461,
              40.540078
            ],
            [
              74.2927881,
              40.539958
            ],
            [
              74.2928473,
              40.5396129
            ],
            [
              74.2928473,
              40.5392827
            ],
            [
              74.2925907,
              40.5393578
            ],
            [
              74.2921958,
              40.5396879
            ],
            [
              74.2917132,
              40.5397584
            ],
            [
              74.2912725,
              40.5394946
            ],
            [
              74.2911364,
              40.5392267
            ],
            [
              74.2914645,
              40.5391603
            ],
            [
              74.2920773,
              40.5387725
            ],
            [
              74.2924722,
              40.5383074
            ],
            [
              74.2926499,
              40.5368068
            ],
            [
              74.2923155,
              40.5361964
            ],
            [
              74.2923444,
              40.5352811
            ],
            [
              74.2925777,
              40.5350122
            ],
            [
              74.2926959,
              40.5345764
            ],
            [
              74.2929219,
              40.5344751
            ],
            [
              74.2931803,
              40.5345062
            ],
            [
              74.2937145,
              40.5347033
            ],
            [
              74.2943079,
              40.535054
            ],
            [
              74.2950588,
              40.5353397
            ],
            [
              74.2958289,
              40.5354562
            ],
            [
              74.2959473,
              40.5360565
            ],
            [
              74.2962632,
              40.5366867
            ],
            [
              74.2968951,
              40.537317
            ],
            [
              74.2978626,
              40.5377672
            ],
            [
              74.2980008,
              40.5380073
            ],
            [
              74.2988498,
              40.5382023
            ],
            [
              74.2988498,
              40.5384874
            ],
            [
              74.2999951,
              40.5388776
            ],
            [
              74.3004887,
              40.5388176
            ],
            [
              74.3008836,
              40.5382624
            ],
            [
              74.3013744,
              40.5372346
            ],
            [
              74.3024307,
              40.5364117
            ],
            [
              74.3030906,
              40.5362587
            ],
            [
              74.3036148,
              40.5360951
            ],
            [
              74.3039133,
              40.5361854
            ],
            [
              74.3044757,
              40.5364869
            ],
            [
              74.3042186,
              40.5370426
            ],
            [
              74.3043785,
              40.5375421
            ],
            [
              74.304418,
              40.5391627
            ],
            [
              74.304181,
              40.5395078
            ],
            [
              74.3065746,
              40.5393137
            ],
            [
              74.3089446,
              40.5389594
            ],
            [
              74.310756,
              40.5396015
            ],
            [
              74.3120403,
              40.5393295
            ],
            [
              74.312558,
              40.5391834
            ],
            [
              74.3137967,
              40.5391946
            ],
            [
              74.314357,
              40.5388441
            ],
            [
              74.3149316,
              40.53871
            ],
            [
              74.3159633,
              40.5387819
            ],
            [
              74.3173282,
              40.5393912
            ],
            [
              74.3185559,
              40.5396803
            ],
            [
              74.3189006,
              40.5396601
            ],
            [
              74.319219,
              40.5398665
            ],
            [
              74.3194999,
              40.5401907
            ],
            [
              74.3199655,
              40.5403543
            ],
            [
              74.320373,
              40.5404928
            ],
            [
              74.3220148,
              40.5412011
            ],
            [
              74.3231067,
              40.5415021
            ],
            [
              74.3238357,
              40.5414822
            ],
            [
              74.325136,
              40.5411747
            ],
            [
              74.3257456,
              40.5408721
            ],
            [
              74.326531,
              40.5405184
            ],
            [
              74.3280739,
              40.5405608
            ],
            [
              74.328286,
              40.5414207
            ],
            [
              74.3279738,
              40.5422387
            ],
            [
              74.3278923,
              40.5428219
            ],
            [
              74.3281717,
              40.5430247
            ],
            [
              74.3300107,
              40.5435508
            ],
            [
              74.3306313,
              40.5435253
            ],
            [
              74.331544,
              40.5437154
            ],
            [
              74.3324778,
              40.5436469
            ],
            [
              74.3330972,
              40.543791
            ],
            [
              74.3339648,
              40.5436015
            ],
            [
              74.3352077,
              40.5438944
            ],
            [
              74.3354549,
              40.5438776
            ],
            [
              74.3360345,
              40.5435618
            ],
            [
              74.3363687,
              40.5436678
            ],
            [
              74.3367137,
              40.5439153
            ],
            [
              74.3375562,
              40.5444973
            ],
            [
              74.3377936,
              40.544534
            ],
            [
              74.3381644,
              40.5444941
            ],
            [
              74.3384767,
              40.5445848
            ],
            [
              74.3386035,
              40.5451042
            ],
            [
              74.3394057,
              40.5456615
            ],
            [
              74.3412205,
              40.5460167
            ],
            [
              74.3425026,
              40.5456762
            ],
            [
              74.3428385,
              40.545576
            ],
            [
              74.343142,
              40.5454774
            ],
            [
              74.3437429,
              40.5455554
            ],
            [
              74.34436,
              40.545535
            ],
            [
              74.344616,
              40.5456906
            ],
            [
              74.3439611,
              40.5471469
            ],
            [
              74.3438077,
              40.5474141
            ],
            [
              74.3433975,
              40.5484696
            ],
            [
              74.3433179,
              40.5486743
            ],
            [
              74.3431186,
              40.5489711
            ],
            [
              74.3425702,
              40.5491385
            ],
            [
              74.3422618,
              40.549414
            ],
            [
              74.3419754,
              40.5498984
            ],
            [
              74.3413372,
              40.5499092
            ],
            [
              74.3403188,
              40.5495387
            ],
            [
              74.3376484,
              40.5495908
            ],
            [
              74.3364056,
              40.549244
            ],
            [
              74.3354277,
              40.5487236
            ],
            [
              74.3341547,
              40.5488431
            ],
            [
              74.3337048,
              40.5486889
            ],
            [
              74.3331169,
              40.5491736
            ],
            [
              74.3319323,
              40.5496996
            ],
            [
              74.3317649,
              40.5492456
            ],
            [
              74.3308814,
              40.5494819
            ],
            [
              74.3304336,
              40.5488929
            ],
            [
              74.3293894,
              40.5485057
            ],
            [
              74.3284605,
              40.5485081
            ],
            [
              74.3279344,
              40.5486755
            ],
            [
              74.3276184,
              40.5497257
            ],
            [
              74.3275987,
              40.5505209
            ],
            [
              74.3268929,
              40.5507308
            ],
            [
              74.3266396,
              40.5506679
            ],
            [
              74.325855,
              40.5502834
            ],
            [
              74.3257216,
              40.5500448
            ],
            [
              74.3251492,
              40.5496308
            ],
            [
              74.3251454,
              40.5493376
            ],
            [
              74.3253774,
              40.5484504
            ],
            [
              74.3250516,
              40.5482104
            ],
            [
              74.3245185,
              40.5483154
            ],
            [
              74.3240595,
              40.5481691
            ],
            [
              74.3239853,
              40.5478353
            ],
            [
              74.3224057,
              40.5476553
            ],
            [
              74.3219213,
              40.5475506
            ],
            [
              74.3217197,
              40.5473252
            ],
            [
              74.3207077,
              40.5471451
            ],
            [
              74.32053,
              40.5468901
            ],
            [
              74.3189701,
              40.546665
            ],
            [
              74.3183975,
              40.5463199
            ],
            [
              74.3175682,
              40.5461399
            ],
            [
              74.3165414,
              40.5462749
            ],
            [
              74.3156332,
              40.5475202
            ],
            [
              74.315416,
              40.5474752
            ],
            [
              74.3152778,
              40.5479253
            ],
            [
              74.3146784,
              40.5488392
            ],
            [
              74.3143037,
              40.5487637
            ],
            [
              74.3138584,
              40.5486406
            ],
            [
              74.312865,
              40.5482966
            ],
            [
              74.3130792,
              40.5460742
            ],
            [
              74.3128886,
              40.5453747
            ],
            [
              74.3120001,
              40.5451346
            ],
            [
              74.311467,
              40.5453897
            ],
            [
              74.3107561,
              40.5451046
            ],
            [
              74.3105982,
              40.5448045
            ],
            [
              74.3097689,
              40.5447745
            ],
            [
              74.3079918,
              40.5450896
            ],
            [
              74.3071428,
              40.5447445
            ],
            [
              74.3069651,
              40.5447745
            ],
            [
              74.3068071,
              40.5444894
            ],
            [
              74.3050696,
              40.5444594
            ],
            [
              74.3047141,
              40.5448495
            ],
            [
              74.3039836,
              40.5444294
            ],
            [
              74.3028976,
              40.5448495
            ],
            [
              74.3026014,
              40.5448045
            ],
            [
              74.3021275,
              40.5450146
            ],
            [
              74.3018708,
              40.5452546
            ],
            [
              74.3015747,
              40.5452096
            ],
            [
              74.301239,
              40.5450296
            ],
            [
              74.3011205,
              40.5456298
            ],
            [
              74.3001925,
              40.546455
            ],
            [
              74.2997384,
              40.54659
            ],
            [
              74.2995607,
              40.5470251
            ],
            [
              74.2989881,
              40.5471601
            ],
            [
              74.2982378,
              40.5469351
            ],
            [
              74.2974874,
              40.5469801
            ],
            [
              74.2967569,
              40.5472052
            ],
            [
              74.296283,
              40.5470551
            ]
          ]
        ]
      },
      "id": "way/574360411"
    },
    {
      "type": "Feature",
      "properties": {
        "@id": "way/574389388",
        "alt_name": "Кичи Кулун-Ата көлү",
        "ele": "2453.6",
        "name": "Орто-Көл",
        "name:en": "Orto-Köl",
        "name:ky": "Орто-Көл",
        "natural": "water",
        "water": "lake"
      },
      "geometry": {
        "type": "Polygon",
        "coordinates": [
          [
            [
              74.2611247,
              40.5277185
            ],
            [
              74.2609804,
              40.5278234
            ],
            [
              74.2607681,
              40.5277952
            ],
            [
              74.2606065,
              40.5278299
            ],
            [
              74.2604803,
              40.5278353
            ],
            [
              74.2603128,
              40.5277824
            ],
            [
              74.2601222,
              40.527826
            ],
            [
              74.2599705,
              40.5277708
            ],
            [
              74.2598169,
              40.5277777
            ],
            [
              74.259547,
              40.5277273
            ],
            [
              74.2593767,
              40.5278339
            ],
            [
              74.2589941,
              40.5277623
            ],
            [
              74.2579898,
              40.5279134
            ],
            [
              74.2573524,
              40.5281116
            ],
            [
              74.2570501,
              40.5281701
            ],
            [
              74.2567083,
              40.5280715
            ],
            [
              74.2561871,
              40.5279418
            ],
            [
              74.2558315,
              40.5275606
            ],
            [
              74.2555723,
              40.5274096
            ],
            [
              74.2554908,
              40.5272129
            ],
            [
              74.2552544,
              40.5271603
            ],
            [
              74.2552632,
              40.5269079
            ],
            [
              74.2547121,
              40.5266555
            ],
            [
              74.2544659,
              40.5265442
            ],
            [
              74.2543909,
              40.5263668
            ],
            [
              74.2542632,
              40.5262326
            ],
            [
              74.2542073,
              40.5260897
            ],
            [
              74.2542671,
              40.5259141
            ],
            [
              74.254025,
              40.5257727
            ],
            [
              74.2538894,
              40.5255193
            ],
            [
              74.2536992,
              40.525532
            ],
            [
              74.2533843,
              40.5249201
            ],
            [
              74.2533957,
              40.5245631
            ],
            [
              74.2534899,
              40.524338
            ],
            [
              74.253467,
              40.5239184
            ],
            [
              74.2533358,
              40.5237134
            ],
            [
              74.2531384,
              40.5236467
            ],
            [
              74.2529518,
              40.5235411
            ],
            [
              74.2528382,
              40.5233656
            ],
            [
              74.2528546,
              40.5232639
            ],
            [
              74.252646,
              40.5230969
            ],
            [
              74.2525562,
              40.5229475
            ],
            [
              74.2522846,
              40.5228249
            ],
            [
              74.2521941,
              40.5227824
            ],
            [
              74.25212,
              40.5226146
            ],
            [
              74.2522175,
              40.5224664
            ],
            [
              74.2523423,
              40.5222145
            ],
            [
              74.2523313,
              40.5220324
            ],
            [
              74.2524077,
              40.522043
            ],
            [
              74.2525488,
              40.5221527
            ],
            [
              74.2527532,
              40.5221063
            ],
            [
              74.2529629,
              40.5216372
            ],
            [
              74.2531484,
              40.5213102
            ],
            [
              74.2534607,
              40.5211781
            ],
            [
              74.2537843,
              40.5212136
            ],
            [
              74.254563,
              40.5212595
            ],
            [
              74.2554195,
              40.5212688
            ],
            [
              74.2559828,
              40.5218075
            ],
            [
              74.2563094,
              40.5223966
            ],
            [
              74.2564915,
              40.522498
            ],
            [
              74.2566914,
              40.5228571
            ],
            [
              74.256851,
              40.5230614
            ],
            [
              74.2570903,
              40.524036
            ],
            [
              74.2572978,
              40.5244205
            ],
            [
              74.2572023,
              40.5245592
            ],
            [
              74.2572183,
              40.5247216
            ],
            [
              74.2570525,
              40.5248511
            ],
            [
              74.2576725,
              40.5258403
            ],
            [
              74.258472,
              40.5257298
            ],
            [
              74.2591806,
              40.5261165
            ],
            [
              74.2596893,
              40.5259508
            ],
            [
              74.2617908,
              40.5265114
            ],
            [
              74.2618237,
              40.5266713
            ],
            [
              74.2616214,
              40.5271961
            ],
            [
              74.2613656,
              40.5272707
            ],
            [
              74.2612886,
              40.5275047
            ],
            [
              74.2611247,
              40.5277185
            ]
          ]
        ]
      },
      "id": "way/574389388"
    },
    {
      "type": "Feature",
      "properties": {
        "@id": "way/783153698",
        "natural": "water"
      },
      "geometry": {
        "type": "Polygon",
        "coordinates": [
          [
            [
              74.0940619,
              40.4342904
            ],
            [
              74.0938143,
              40.4343011
            ],
            [
              74.0937396,
              40.4342335
            ],
            [
              74.0937676,
              40.4341198
            ],
            [
              74.0938237,
              40.4340522
            ],
            [
              74.0939965,
              40.4340451
            ],
            [
              74.0940945,
              40.4340842
            ],
            [
              74.0941039,
              40.4341553
            ],
            [
              74.0941039,
              40.434198
            ],
            [
              74.0940619,
              40.4342904
            ]
          ]
        ]
      },
      "id": "way/783153698"
    },
    {
      "type": "Feature",
      "properties": {
        "@id": "way/1112572145",
        "natural": "water",
        "source": "mapbox",
        "water": "lake"
      },
      "geometry": {
        "type": "Polygon",
        "coordinates": [
          [
            [
              74.5339093,
              40.2207771
            ],
            [
              74.5339753,
              40.2207778
            ],
            [
              74.5340643,
              40.2208099
            ],
            [
              74.5342023,
              40.2209115
            ],
            [
              74.5343254,
              40.2210543
            ],
            [
              74.5343594,
              40.2211146
            ],
            [
              74.5343504,
              40.2211505
            ],
            [
              74.5343134,
              40.2211887
            ],
            [
              74.5342383,
              40.2212193
            ],
            [
              74.5341623,
              40.2212857
            ],
            [
              74.5340983,
              40.2213552
            ],
            [
              74.5340473,
              40.2213651
            ],
            [
              74.5340003,
              40.2213567
            ],
            [
              74.5339253,
              40.2213186
            ],
            [
              74.5338172,
              40.2212101
            ],
            [
              74.5337852,
              40.2210283
            ],
            [
              74.5337522,
              40.2209909
            ],
            [
              74.5337302,
              40.2208932
            ],
            [
              74.5337382,
              40.2208427
            ],
            [
              74.5337912,
              40.2208175
            ],
            [
              74.5339093,
              40.2207771
            ]
          ]
        ]
      },
      "id": "way/1112572145"
    },
    {
      "type": "Feature",
      "properties": {
        "@id": "way/1112572228",
        "natural": "water",
        "source": "mapbox",
        "water": "lake"
      },
      "geometry": {
        "type": "Polygon",
        "coordinates": [
          [
            [
              74.1999092,
              40.1496616
            ],
            [
              74.1999281,
              40.1496518
            ],
            [
              74.1999611,
              40.1496116
            ],
            [
              74.2000906,
              40.1495481
            ],
            [
              74.2001114,
              40.1495117
            ],
            [
              74.2001505,
              40.1493912
            ],
            [
              74.2002067,
              40.1493184
            ],
            [
              74.2002115,
              40.1492623
            ],
            [
              74.2002421,
              40.1491848
            ],
            [
              74.2003117,
              40.1491138
            ],
            [
              74.2003899,
              40.1490877
            ],
            [
              74.2004657,
              40.1490363
            ],
            [
              74.2005622,
              40.1490326
            ],
            [
              74.2006257,
              40.1490214
            ],
            [
              74.2007357,
              40.1489457
            ],
            [
              74.2009507,
              40.1488654
            ],
            [
              74.201046,
              40.1487776
            ],
            [
              74.2011536,
              40.148575
            ],
            [
              74.2011633,
              40.1485021
            ],
            [
              74.2012,
              40.1483994
            ],
            [
              74.2011939,
              40.1483125
            ],
            [
              74.2011584,
              40.1482453
            ],
            [
              74.2011829,
              40.1481584
            ],
            [
              74.2012256,
              40.1481005
            ],
            [
              74.2012525,
              40.1480081
            ],
            [
              74.2013942,
              40.1479931
            ],
            [
              74.2014676,
              40.1480155
            ],
            [
              74.2015824,
              40.1480062
            ],
            [
              74.201707,
              40.1479446
            ],
            [
              74.2017315,
              40.1478026
            ],
            [
              74.2016484,
              40.1476289
            ],
            [
              74.2013723,
              40.1473291
            ],
            [
              74.2013295,
              40.1471675
            ],
            [
              74.2010766,
              40.1468042
            ],
            [
              74.2008261,
              40.1466473
            ],
            [
              74.2006893,
              40.146482
            ],
            [
              74.2004449,
              40.1463363
            ],
            [
              74.2003747,
              40.146278
            ],
            [
              74.2000307,
              40.1461056
            ],
            [
              74.1999782,
              40.1460589
            ],
            [
              74.1997741,
              40.1459637
            ],
            [
              74.1997051,
              40.1459095
            ],
            [
              74.1996459,
              40.1458894
            ],
            [
              74.1996355,
              40.145867
            ],
            [
              74.19963,
              40.1458119
            ],
            [
              74.1996135,
              40.145797
            ],
            [
              74.1996135,
              40.145775
            ],
            [
              74.1996385,
              40.1457148
            ],
            [
              74.1996367,
              40.1456952
            ],
            [
              74.1996006,
              40.1456522
            ],
            [
              74.1996147,
              40.1456289
            ],
            [
              74.1996477,
              40.1456326
            ],
            [
              74.1997192,
              40.1456092
            ],
            [
              74.1998035,
              40.1454883
            ],
            [
              74.1999281,
              40.1454351
            ],
            [
              74.1999574,
              40.1453846
            ],
            [
              74.2000002,
              40.1453473
            ],
            [
              74.2000698,
              40.1453267
            ],
            [
              74.2002225,
              40.1453295
            ],
            [
              74.2003386,
              40.1453781
            ],
            [
              74.200506,
              40.1454033
            ],
            [
              74.200605,
              40.1453884
            ],
            [
              74.2006648,
              40.1453884
            ],
            [
              74.2007381,
              40.145379
            ],
            [
              74.2009006,
              40.145394
            ],
            [
              74.2009801,
              40.1453912
            ],
            [
              74.2010656,
              40.1454033
            ],
            [
              74.2012244,
              40.1453818
            ],
            [
              74.2013002,
              40.1453818
            ],
            [
              74.201415,
              40.1453697
            ],
            [
              74.2015177,
              40.1453183
            ],
            [
              74.2016521,
              40.1453071
            ],
            [
              74.2016814,
              40.1453342
            ],
            [
              74.2016594,
              40.1454117
            ],
            [
              74.2016276,
              40.145577
            ],
            [
              74.2016447,
              40.1457461
            ],
            [
              74.2016582,
              40.1460094
            ],
            [
              74.201795,
              40.1463419
            ],
            [
              74.2019233,
              40.1466109
            ],
            [
              74.2020662,
              40.146836
            ],
            [
              74.2022556,
              40.1470415
            ],
            [
              74.2024817,
              40.1471984
            ],
            [
              74.2026918,
              40.1473058
            ],
            [
              74.2030926,
              40.1473795
            ],
            [
              74.2031927,
              40.147415
            ],
            [
              74.20331,
              40.1475224
            ],
            [
              74.2033296,
              40.1476345
            ],
            [
              74.2033772,
              40.1476877
            ],
            [
              74.2033931,
              40.1477727
            ],
            [
              74.2034237,
              40.1478082
            ],
            [
              74.2034237,
              40.1479941
            ],
            [
              74.2034567,
              40.1481407
            ],
            [
              74.2035434,
              40.148306
            ],
            [
              74.2036619,
              40.1484321
            ],
            [
              74.2037426,
              40.1484872
            ],
            [
              74.2037792,
              40.1485946
            ],
            [
              74.2037719,
              40.1487197
            ],
            [
              74.203723,
              40.1488066
            ],
            [
              74.2037377,
              40.1489168
            ],
            [
              74.2037206,
              40.1490008
            ],
            [
              74.2037328,
              40.1491092
            ],
            [
              74.203789,
              40.1492408
            ],
            [
              74.2038171,
              40.1493268
            ],
            [
              74.2037865,
              40.1494659
            ],
            [
              74.2036631,
              40.1496919
            ],
            [
              74.2036399,
              40.149776
            ],
            [
              74.2034994,
              40.1500627
            ],
            [
              74.2033943,
              40.1502046
            ],
            [
              74.2031158,
              40.1503596
            ],
            [
              74.2029899,
              40.1503979
            ],
            [
              74.2028018,
              40.1505287
            ],
            [
              74.2027639,
              40.1505997
            ],
            [
              74.2026991,
              40.1506398
            ],
            [
              74.2025574,
              40.1508219
            ],
            [
              74.2024438,
              40.1510489
            ],
            [
              74.2023326,
              40.1511647
            ],
            [
              74.2022849,
              40.1512496
            ],
            [
              74.2022422,
              40.1512833
            ],
            [
              74.2021469,
              40.1514205
            ],
            [
              74.202054,
              40.1514803
            ],
            [
              74.2020235,
              40.1515167
            ],
            [
              74.2020161,
              40.1515821
            ],
            [
              74.2019807,
              40.1516307
            ],
            [
              74.2018989,
              40.1516774
            ],
            [
              74.2017962,
              40.1517633
            ],
            [
              74.2015983,
              40.1518557
            ],
            [
              74.2013796,
              40.1519304
            ],
            [
              74.2012904,
              40.1520033
            ],
            [
              74.2012373,
              40.1520943
            ],
            [
              74.2011682,
              40.1521247
            ],
            [
              74.2010888,
              40.1521382
            ],
            [
              74.2010405,
              40.1521326
            ],
            [
              74.2009984,
              40.1521102
            ],
            [
              74.2009697,
              40.1520416
            ],
            [
              74.2009208,
              40.1520192
            ],
            [
              74.200911,
              40.1519888
            ],
            [
              74.2008872,
              40.1519729
            ],
            [
              74.2008249,
              40.1519528
            ],
            [
              74.2008139,
              40.1519342
            ],
            [
              74.2007119,
              40.1518898
            ],
            [
              74.2006923,
              40.1518613
            ],
            [
              74.2007326,
              40.1518338
            ],
            [
              74.2007333,
              40.1517689
            ],
            [
              74.2007204,
              40.151725
            ],
            [
              74.2007308,
              40.1517016
            ],
            [
              74.2007412,
              40.151676
            ],
            [
              74.2007143,
              40.1516367
            ],
            [
              74.2006648,
              40.1516124
            ],
            [
              74.2006251,
              40.151563
            ],
            [
              74.2005396,
              40.1515377
            ],
            [
              74.2004773,
              40.1515074
            ],
            [
              74.2004529,
              40.1514649
            ],
            [
              74.2004357,
              40.1514486
            ],
            [
              74.200385,
              40.1514266
            ],
            [
              74.2003588,
              40.1513963
            ],
            [
              74.2003459,
              40.1513407
            ],
            [
              74.2002794,
              40.1512707
            ],
            [
              74.2001773,
              40.151217
            ],
            [
              74.2001114,
              40.1511647
            ],
            [
              74.2000625,
              40.1511072
            ],
            [
              74.2000484,
              40.1510442
            ],
            [
              74.2000564,
              40.1509013
            ],
            [
              74.2000814,
              40.1508607
            ],
            [
              74.2000784,
              40.1507953
            ],
            [
              74.2001138,
              40.1507397
            ],
            [
              74.2001254,
              40.1507019
            ],
            [
              74.2001144,
              40.1506641
            ],
            [
              74.200082,
              40.1506137
            ],
            [
              74.2000723,
              40.1505404
            ],
            [
              74.2000338,
              40.1504675
            ],
            [
              74.1999678,
              40.1504045
            ],
            [
              74.1999531,
              40.1503596
            ],
            [
              74.199944,
              40.1502691
            ],
            [
              74.1999085,
              40.1501962
            ],
            [
              74.1998743,
              40.1501598
            ],
            [
              74.1998505,
              40.1500613
            ],
            [
              74.199823,
              40.1500216
            ],
            [
              74.1998053,
              40.1499459
            ],
            [
              74.1997839,
              40.1499179
            ],
            [
              74.1997778,
              40.1498932
            ],
            [
              74.1997851,
              40.1498311
            ],
            [
              74.1997662,
              40.1497531
            ],
            [
              74.1997741,
              40.1497293
            ],
            [
              74.1998157,
              40.1497008
            ],
            [
              74.199889,
              40.149677
            ],
            [
              74.1999092,
              40.1496616
            ]
          ]
        ]
      },
      "id": "way/1112572228"
    },
    {
      "type": "Feature",
      "properties": {
        "@id": "way/1112572266",
        "name": "Бөдөнө-Көл",
        "name:en": "Bödönö-Köl",
        "name:ky": "Бөдөнө-Көл",
        "natural": "water",
        "source": "mapbox",
        "water": "pond"
      },
      "geometry": {
        "type": "Polygon",
        "coordinates": [
          [
            [
              73.955664,
              40.3555182
            ],
            [
              73.9557137,
              40.3555255
            ],
            [
              73.9558046,
              40.3555841
            ],
            [
              73.9558937,
              40.3556626
            ],
            [
              73.956222,
              40.3557957
            ],
            [
              73.9562675,
              40.3558383
            ],
            [
              73.9563338,
              40.3560127
            ],
            [
              73.9564037,
              40.3560526
            ],
            [
              73.9565784,
              40.3560766
            ],
            [
              73.9568054,
              40.3561365
            ],
            [
              73.9568404,
              40.3561884
            ],
            [
              73.9568928,
              40.3563222
            ],
            [
              73.9567373,
              40.3563641
            ],
            [
              73.9565504,
              40.3563375
            ],
            [
              73.9562788,
              40.3563588
            ],
            [
              73.9561609,
              40.3563841
            ],
            [
              73.9560832,
              40.3563841
            ],
            [
              73.9560142,
              40.3563568
            ],
            [
              73.9557627,
              40.3562117
            ],
            [
              73.9555749,
              40.3560393
            ],
            [
              73.9554631,
              40.3558603
            ],
            [
              73.9554395,
              40.3557458
            ],
            [
              73.9554605,
              40.3556759
            ],
            [
              73.9555303,
              40.3556227
            ],
            [
              73.955664,
              40.3555182
            ]
          ]
        ]
      },
      "id": "way/1112572266"
    },
    {
      "type": "Feature",
      "properties": {
        "@id": "way/1150675966",
        "natural": "water",
        "source": "mapbox"
      },
      "geometry": {
        "type": "Polygon",
        "coordinates": [
          [
            [
              74.5484523,
              40.2595334
            ],
            [
              74.5484852,
              40.2595277
            ],
            [
              74.5485261,
              40.2595103
            ],
            [
              74.5485677,
              40.2595134
            ],
            [
              74.5485918,
              40.2595262
            ],
            [
              74.5485945,
              40.2595722
            ],
            [
              74.5485764,
              40.2596091
            ],
            [
              74.548453,
              40.2597299
            ],
            [
              74.5484255,
              40.2597396
            ],
            [
              74.5483732,
              40.2597334
            ],
            [
              74.548339,
              40.2597171
            ],
            [
              74.5483357,
              40.2596956
            ],
            [
              74.5483746,
              40.2596485
            ],
            [
              74.54839,
              40.2596086
            ],
            [
              74.5484523,
              40.2595334
            ]
          ]
        ]
      },
      "id": "way/1150675966"
    },
    {
      "type": "Feature",
      "properties": {
        "@id": "way/1150675967",
        "natural": "water",
        "source": "mapbox"
      },
      "geometry": {
        "type": "Polygon",
        "coordinates": [
          [
            [
              74.5491199,
              40.2583779
            ],
            [
              74.5491859,
              40.258406
            ],
            [
              74.5492785,
              40.2584214
            ],
            [
              74.5493294,
              40.2584367
            ],
            [
              74.5493616,
              40.2584603
            ],
            [
              74.5493338,
              40.2585659
            ],
            [
              74.5493261,
              40.2586174
            ],
            [
              74.5492496,
              40.2586885
            ],
            [
              74.5492426,
              40.2587095
            ],
            [
              74.5492476,
              40.2587254
            ],
            [
              74.549247,
              40.2587543
            ],
            [
              74.5492362,
              40.2587694
            ],
            [
              74.5492134,
              40.2587755
            ],
            [
              74.5491883,
              40.2587622
            ],
            [
              74.5491501,
              40.2587745
            ],
            [
              74.5490763,
              40.258785
            ],
            [
              74.5489724,
              40.2587868
            ],
            [
              74.5489362,
              40.2587763
            ],
            [
              74.5488775,
              40.2587346
            ],
            [
              74.548858,
              40.2586929
            ],
            [
              74.5488587,
              40.2585931
            ],
            [
              74.5488808,
              40.2585312
            ],
            [
              74.5489278,
              40.258459
            ],
            [
              74.5490186,
              40.2584037
            ],
            [
              74.5490703,
              40.2583986
            ],
            [
              74.5491199,
              40.2583779
            ]
          ]
        ]
      },
      "id": "way/1150675967"
    },
    {
      "type": "Feature",
      "properties": {
        "@id": "way/1234480575",
        "natural": "water",
        "water": "lake"
      },
      "geometry": {
        "type": "Polygon",
        "coordinates": [
          [
            [
              73.9375366,
              40.1957334
            ],
            [
              73.9373276,
              40.1956135
            ],
            [
              73.9372636,
              40.1955098
            ],
            [
              73.9372363,
              40.1954343
            ],
            [
              73.9372345,
              40.1953276
            ],
            [
              73.937177,
              40.1952029
            ],
            [
              73.9370527,
              40.1950865
            ],
            [
              73.936979,
              40.1949991
            ],
            [
              73.9369178,
              40.1949246
            ],
            [
              73.9368466,
              40.1947954
            ],
            [
              73.9368359,
              40.1947056
            ],
            [
              73.9368341,
              40.1946054
            ],
            [
              73.9369707,
              40.1945767
            ],
            [
              73.9371143,
              40.1947127
            ],
            [
              73.9371508,
              40.1948311
            ],
            [
              73.937291,
              40.1949675
            ],
            [
              73.9374982,
              40.1950741
            ],
            [
              73.9377827,
              40.19521
            ],
            [
              73.9378888,
              40.1953105
            ],
            [
              73.9379908,
              40.1954691
            ],
            [
              73.938068,
              40.1955578
            ],
            [
              73.9382359,
              40.1956588
            ],
            [
              73.938285,
              40.1957721
            ],
            [
              73.9382115,
              40.1958655
            ],
            [
              73.9380938,
              40.1959507
            ],
            [
              73.9379222,
              40.1959176
            ],
            [
              73.9377738,
              40.1958779
            ],
            [
              73.9375366,
              40.1957334
            ]
          ]
        ]
      },
      "id": "way/1234480575"
    },
    {
      "type": "Feature",
      "properties": {
        "@id": "way/1234480576",
        "natural": "water",
        "water": "lake"
      },
      "geometry": {
        "type": "Polygon",
        "coordinates": [
          [
            [
              73.9347796,
              40.1884998
            ],
            [
              73.9347418,
              40.1884723
            ],
            [
              73.9347109,
              40.1884498
            ],
            [
              73.9347185,
              40.1883091
            ],
            [
              73.934787,
              40.1882116
            ],
            [
              73.9349264,
              40.1880623
            ],
            [
              73.934921,
              40.1879562
            ],
            [
              73.9349101,
              40.1878526
            ],
            [
              73.93493,
              40.1877541
            ],
            [
              73.9350011,
              40.1876908
            ],
            [
              73.9351867,
              40.1877088
            ],
            [
              73.9352582,
              40.1878629
            ],
            [
              73.9351406,
              40.1880609
            ],
            [
              73.935064,
              40.1882061
            ],
            [
              73.9349651,
              40.1883491
            ],
            [
              73.9347796,
              40.1884998
            ]
          ]
        ]
      },
      "id": "way/1234480576"
    },
    {
      "type": "Feature",
      "properties": {
        "@id": "way/1234734127",
        "natural": "water",
        "water": "pond"
      },
      "geometry": {
        "type": "Polygon",
        "coordinates": [
          [
            [
              74.3702465,
              40.5923074
            ],
            [
              74.3700852,
              40.5923716
            ],
            [
              74.3699465,
              40.5923981
            ],
            [
              74.3698737,
              40.5923394
            ],
            [
              74.369834,
              40.5921914
            ],
            [
              74.3698737,
              40.5920847
            ],
            [
              74.370024,
              40.5919895
            ],
            [
              74.3701587,
              40.5918781
            ],
            [
              74.3702671,
              40.5917664
            ],
            [
              74.3705064,
              40.5916483
            ],
            [
              74.3705417,
              40.5915429
            ],
            [
              74.3706434,
              40.5915119
            ],
            [
              74.370971,
              40.5914125
            ],
            [
              74.371271,
              40.5912506
            ],
            [
              74.3715633,
              40.5911834
            ],
            [
              74.3716765,
              40.5912478
            ],
            [
              74.3716305,
              40.59142
            ],
            [
              74.3716313,
              40.5915663
            ],
            [
              74.3715549,
              40.5916988
            ],
            [
              74.3713727,
              40.5917874
            ],
            [
              74.370928,
              40.5919408
            ],
            [
              74.3705786,
              40.5920725
            ],
            [
              74.3702465,
              40.5923074
            ]
          ]
        ]
      },
      "id": "way/1234734127"
    },
    {
      "type": "Feature",
      "properties": {
        "@id": "way/1235311851",
        "natural": "water",
        "water": "pond"
      },
      "geometry": {
        "type": "Polygon",
        "coordinates": [
          [
            [
              74.2511315,
              40.5207315
            ],
            [
              74.2510434,
              40.5207394
            ],
            [
              74.2510017,
              40.5206863
            ],
            [
              74.2509119,
              40.5206345
            ],
            [
              74.2508569,
              40.5205789
            ],
            [
              74.2508996,
              40.5205521
            ],
            [
              74.2509175,
              40.520481
            ],
            [
              74.2508952,
              40.5204103
            ],
            [
              74.2508816,
              40.5203461
            ],
            [
              74.2509316,
              40.5202959
            ],
            [
              74.2510327,
              40.5202636
            ],
            [
              74.2511209,
              40.5202572
            ],
            [
              74.251233,
              40.5202886
            ],
            [
              74.251284,
              40.5203692
            ],
            [
              74.2512805,
              40.520469
            ],
            [
              74.2512749,
              40.5205639
            ],
            [
              74.2511315,
              40.5207315
            ]
          ]
        ]
      },
      "id": "way/1235311851"
    },
    {
      "type": "Feature",
      "properties": {
        "@id": "way/1362389396",
        "natural": "water",
        "water": "pond"
      },
      "geometry": {
        "type": "Polygon",
        "coordinates": [
          [
            [
              73.7928315,
              40.3928349
            ],
            [
              73.7926545,
              40.3927682
            ],
            [
              73.7925744,
              40.3926903
            ],
            [
              73.79247,
              40.392636
            ],
            [
              73.7924485,
              40.3925766
            ],
            [
              73.7924892,
              40.3925238
            ],
            [
              73.7925988,
              40.392574
            ],
            [
              73.7926901,
              40.3925805
            ],
            [
              73.7927541,
              40.3926059
            ],
            [
              73.7928242,
              40.3926403
            ],
            [
              73.7929022,
              40.3926834
            ],
            [
              73.7929945,
              40.3927405
            ],
            [
              73.7930658,
              40.3927957
            ],
            [
              73.7930749,
              40.3928346
            ],
            [
              73.7929657,
              40.3928735
            ],
            [
              73.7928315,
              40.3928349
            ]
          ]
        ]
      },
      "id": "way/1362389396"
    },
    {
      "type": "Feature",
      "properties": {
        "@id": "way/1362428335",
        "intermittent": "yes",
        "natural": "water",
        "tidal": "no",
        "water": "lake"
      },
      "geometry": {
        "type": "Polygon",
        "coordinates": [
          [
            [
              73.9746825,
              40.2954774
            ],
            [
              73.9745136,
              40.2954493
            ],
            [
              73.9744327,
              40.2953884
            ],
            [
              73.974375,
              40.2952946
            ],
            [
              73.9744033,
              40.2951351
            ],
            [
              73.9744144,
              40.2950467
            ],
            [
              73.9745207,
              40.2949983
            ],
            [
              73.9746264,
              40.2949803
            ],
            [
              73.9747718,
              40.2950127
            ],
            [
              73.9748865,
              40.2949884
            ],
            [
              73.9749752,
              40.2949423
            ],
            [
              73.975105,
              40.2948666
            ],
            [
              73.9752123,
              40.2948706
            ],
            [
              73.9753035,
              40.2948957
            ],
            [
              73.9753241,
              40.2950107
            ],
            [
              73.9752497,
              40.29517
            ],
            [
              73.9751977,
              40.295256
            ],
            [
              73.975122,
              40.2952461
            ],
            [
              73.9749827,
              40.2952703
            ],
            [
              73.9749337,
              40.2953206
            ],
            [
              73.9748839,
              40.2953742
            ],
            [
              73.9748048,
              40.2954363
            ],
            [
              73.9746825,
              40.2954774
            ]
          ]
        ]
      },
      "id": "way/1362428335"
    },
    {
      "type": "Feature",
      "properties": {
        "@id": "way/1362459252",
        "natural": "water",
        "water": "river"
      },
      "geometry": {
        "type": "Polygon",
        "coordinates": [
          [
            [
              74.1552795,
              40.3168863
            ],
            [
              74.1551548,
              40.3168882
            ],
            [
              74.1545972,
              40.3166663
            ],
            [
              74.1543326,
              40.3164846
            ],
            [
              74.1542761,
              40.3164373
            ],
            [
              74.1544051,
              40.3164377
            ],
            [
              74.154415,
              40.3163822
            ],
            [
              74.1544926,
              40.3163277
            ],
            [
              74.154594,
              40.3163003
            ],
            [
              74.154667,
              40.3162805
            ],
            [
              74.1549776,
              40.3164244
            ],
            [
              74.1550078,
              40.3165967
            ],
            [
              74.1550849,
              40.3167169
            ],
            [
              74.1551305,
              40.3167817
            ],
            [
              74.1552101,
              40.3168124
            ],
            [
              74.1552795,
              40.3168863
            ]
          ]
        ]
      },
      "id": "way/1362459252"
    }
  ]
}