{"type":"FeatureCollection","name":"kara-kulja-pois-culture-sport","features":[{"type":"Feature","geometry":{"type":"Point","coordinates":[74.105856,40.426906]},"properties":{"@id":"node/12608561495","name":"Суранбай Булашбаев атындагы №19 китепкана","source":"Oi-Tal local material","amenity":"library","osmSource":"OpenStreetMap","villageSlug":"oy-tal","territorySlug":"oy-tal"}},{"type":"Feature","geometry":{"type":"Point","coordinates":[74.110547,40.422486]},"properties":{"@id":"manual/oy-tal/urkunov-sultanmamyt-culture-house","name":"Үркүнов Султанмамыт атындагы маданият үйү","source":"Oi-Tal local material","amenity":"community_centre","villageSlug":"oy-tal","territorySlug":"oy-tal"}},{"type":"Feature","geometry":{"type":"Point","coordinates":[74.111597,40.420164]},"properties":{"@id":"manual/oy-tal/aliev-zhylkychy-sports-hall","name":"Алиев Жылкычы атындагы спорт зал","source":"Oi-Tal local material","leisure":"sports_centre","villageSlug":"oy-tal","territorySlug":"oy-tal"}},{"type":"Feature","geometry":{"type":"Point","coordinates":[74.111147,40.419533]},"properties":{"@id":"manual/oy-tal/small-football-pitch","name":"Кичи футбол аянтчасы","source":"Oi-Tal local material","leisure":"pitch","sport":"soccer","villageSlug":"oy-tal","territorySlug":"oy-tal"}},{"type":"Feature","geometry":{"type":"Point","coordinates":[74.115445,40.460303]},"properties":{"@id":"manual/konduk/toktosartov-library","name":"А.Токтосартов атындагы №18 китепкана","source":"Oi-Tal local material","amenity":"library","villageSlug":"konduk","territorySlug":"oy-tal"}},{"type":"Feature","geometry":{"type":"Point","coordinates":[73.88952,40.556524]},"properties":{"@id":"manual/sary-bee/satybaldyev-culture-house","name":"С.Сатыбалдыев атындагы маданият үйү","source":"Oi-Tal local material","amenity":"community_centre","villageSlug":"sary-bee","territorySlug":"oy-tal"}},{"type":"Feature","geometry":{"type":"Point","coordinates":[73.8266283,40.5316923]},"properties":{"@id":"manual/terek-suu/t-turganbaev-culture-house","name":"Т.Турганбаев атындагы маданият үйү","source":"Oi-Tal local material","amenity":"community_centre","villageSlug":"terek-suu","territorySlug":"oy-tal"}},{"type":"Feature","geometry":{"type":"Point","coordinates":[73.8252292,40.5314181]},"properties":{"@id":"manual/terek-suu/village-library","name":"Айылдык китепкана","source":"Oi-Tal local material","amenity":"library","villageSlug":"terek-suu","territorySlug":"oy-tal"}}]}
