{"type":"FeatureCollection","name":"kara-kulja-pois-healthcare","features":[{"type":"Feature","geometry":{"type":"Polygon","coordinates":[[[73.4300661,40.630551],[73.4301078,40.6304543],[73.4302594,40.6304919],[73.4302177,40.6305886],[73.4300661,40.630551]]]},"properties":{"@id":"way/419613033","amenity":"hospital","name":"болница"}},{"type":"Feature","geometry":{"type":"Polygon","coordinates":[[[73.3879836,40.6740725],[73.3879622,40.6740562],[73.3880587,40.6739586],[73.388166,40.6740196],[73.3880668,40.6741173],[73.3879836,40.6740725]]]},"properties":{"@id":"way/419615217","amenity":"clinic","building":"yes","name":"ФАП"}},{"type":"Feature","geometry":{"type":"Polygon","coordinates":[[[73.580479,40.6369093],[73.5821768,40.6365002],[73.5829869,40.6385193],[73.5814097,40.6389223],[73.580479,40.6369093]]]},"properties":{"@id":"way/442193911","amenity":"hospital","name":"Больница"}},{"type":"Feature","geometry":{"type":"Point","coordinates":[73.4972836,40.6643037]},"properties":{"@id":"node/6846290085","amenity":"hospital","name":"Каракочкорский реабилитационный центр"}},{"type":"Feature","geometry":{"type":"Point","coordinates":[73.5802205,40.6373148]},"properties":{"@id":"node/6846728787","amenity":"clinic","name":"Каракулжа ЦСМ"}},{"type":"Feature","geometry":{"type":"Point","coordinates":[73.5923052,40.6332559]},"properties":{"@id":"node/10266973623","amenity":"doctors","contact:email":"info@intelmed.kg","contact:phone":"+996 502 320 303;+996 555 320 303","contact:website":"https://www.intelmed.kg/","healthcare":"laboratory","name":"Лаборатория Бонецкого","opening_hours":"Mo-Sa 08:30-15:00"}},{"type":"Feature","geometry":{"type":"Point","coordinates":[74.106156,40.428347]},"properties":{"@id":"manual/oy-tal/family-doctors-group","name":"Ой-Тал ҮДТ","source":"Oi-Tal local material","amenity":"doctors","healthcare":"doctor","villageSlug":"oy-tal","territorySlug":"oy-tal"}},{"type":"Feature","geometry":{"type":"Point","coordinates":[74.11456,40.460423]},"properties":{"@id":"manual/konduk/fap","name":"ФАП","source":"Oi-Tal local material","amenity":"clinic","healthcare":"clinic","villageSlug":"konduk","territorySlug":"oy-tal"}},{"type":"Feature","geometry":{"type":"Point","coordinates":[73.887559,40.555217]},"properties":{"@id":"manual/sary-bee/family-doctors-group","name":"Үй-бүлөлүк дарыгерлер тобу","source":"Oi-Tal local material","amenity":"doctors","healthcare":"doctor","villageSlug":"sary-bee","territorySlug":"oy-tal"}},{"type":"Feature","geometry":{"type":"Point","coordinates":[73.8251377,40.5314541]},"properties":{"@id":"manual/terek-suu/fap","name":"Терек-Суу ФАПы","source":"Oi-Tal local material","amenity":"clinic","healthcare":"clinic","villageSlug":"terek-suu","territorySlug":"oy-tal"}},{"type":"Feature","geometry":{"type":"Point","coordinates":[73.4983861,40.6656167]},"properties":{"@id":"manual/kara-kochkor/gsv","name":"Үй-бүлөлүк дарыгерлер тобу","name:ky":"Үй-бүлөлүк дарыгерлер тобу","name:ru":"Группа семейных врачей","name:en":"Family doctor group","source":"Kara-Kochkor local administration","amenity":"doctors","healthcare":"doctor","villageSlug":"kara-kochkor","territorySlug":"kara-kochkor"}},{"type":"Feature","geometry":{"type":"Point","coordinates":[73.6074639,40.6647278]},"properties":{"@id":"manual/ak-kyya/gsv","name":"Үй-бүлөлүк дарыгерлер тобу","name:ky":"Үй-бүлөлүк дарыгерлер тобу","name:ru":"Группа семейных врачей","name:en":"Family doctor group","source":"Kara-Kochkor local administration","amenity":"doctors","healthcare":"doctor","villageSlug":"ak-kyya","territorySlug":"kara-kochkor"}},{"type":"Feature","geometry":{"type":"Point","coordinates":[73.6056639,40.6622944]},"properties":{"@id":"manual/ak-kyya/fap","name":"ФАП","name:ky":"ФАП","name:ru":"ФАП","name:en":"Feldsher-obstetric point","source":"Kara-Kochkor local administration","amenity":"clinic","healthcare":"clinic","villageSlug":"ak-kyya","territorySlug":"kara-kochkor"}},{"type":"Feature","geometry":{"type":"Point","coordinates":[73.6509917,40.6823306]},"properties":{"@id":"manual/ak-kyya/second-gsv-building","name":"ҮДТ имараты","name:ky":"ҮДТ имараты","name:ru":"Здание ГСВ","name:en":"Family doctor group building","source":"Kara-Kochkor local administration","amenity":"doctors","healthcare":"doctor","villageSlug":"ak-kyya","territorySlug":"kara-kochkor"}},{"type":"Feature","geometry":{"type":"Point","coordinates":[73.5402861,40.6531]},"properties":{"@id":"manual/sary-bulak-kara-kochkor/fap","name":"ФАП","name:ky":"ФАП","name:ru":"ФАП","name:en":"Feldsher-obstetric point","source":"Kara-Kochkor local administration","amenity":"clinic","healthcare":"clinic","villageSlug":"sary-bulak-kara-kochkor","territorySlug":"kara-kochkor"}},{"type":"Feature","geometry":{"type":"Point","coordinates":[73.4091972,40.6867083]},"properties":{"@id":"manual/zhany-talap/fap","name":"ФАП","name:ky":"ФАП","name:ru":"ФАП","name:en":"Feldsher-obstetric point","source":"Kara-Kochkor local administration","amenity":"clinic","healthcare":"clinic","villageSlug":"zhany-talap","territorySlug":"kara-kochkor"}},{"type":"Feature","geometry":{"type":"Point","coordinates":[73.3881583,40.6739917]},"properties":{"@id":"manual/zhiyde/fap","name":"ФАП","name:ky":"ФАП","name:ru":"ФАП","name:en":"Feldsher-obstetric point","source":"Kara-Kochkor local administration","amenity":"clinic","healthcare":"clinic","villageSlug":"zhiyde","territorySlug":"kara-kochkor"}},{"type":"Feature","geometry":{"type":"Point","coordinates":[73.4412833,40.6826444]},"properties":{"@id":"manual/oktyabr/fap","name":"ФАП","name:ky":"ФАП","name:ru":"ФАП","name:en":"Feldsher-obstetric point","source":"Kara-Kochkor local administration","amenity":"clinic","healthcare":"clinic","villageSlug":"oktyabr","territorySlug":"kara-kochkor"}},{"type":"Feature","geometry":{"type":"Point","coordinates":[73.4302417,40.6662444]},"properties":{"@id":"manual/togotoy/gsv","name":"Үй-бүлөлүк дарыгерлер тобу","name:ky":"Үй-бүлөлүк дарыгерлер тобу","name:ru":"Группа семейных врачей","name:en":"Family doctor group","source":"Kara-Kochkor local administration","amenity":"doctors","healthcare":"doctor","villageSlug":"togotoy","territorySlug":"kara-kochkor"}},{"type":"Feature","geometry":{"type":"Point","coordinates":[73.414875,40.7105361]},"properties":{"@id":"manual/yntymak/fap","name":"ФАП","name:ky":"ФАП","name:ru":"ФАП","name:en":"Feldsher-obstetric point","source":"Kara-Kochkor local administration","amenity":"clinic","healthcare":"clinic","villageSlug":"yntymak","territorySlug":"kara-kochkor"}}]}
